<?xml version='1.0' encoding='UTF-8' standalone='yes' ?>
<gpx xsi:schemaLocation="http://www.topografix.com/GPX/1/1 http://www.topografix.com/GPX/1/1/gpx.xsd" xmlns="http://www.topografix.com/GPX/1/1" xmlns:xsi="http://www.w3.org/2001/XMLSchema-instance" xmlns:ns3="http://www.garmin.com/xmlschemas/TrackPointExtension/v1" xmlns:ns2="http://www.garmin.com/xmlschemas/GpxExtensions/v3" xmlns:ns1="http://www.cluetrust.com/XML/GPXDATA/1/0" creator="Amazfit Active 3 Premium" version="1.1">
	<trk>
		<name><![CDATA[20260612 Đi bộ]]></name>
		<trkseg>
			<trkpt lat="21.0249" lon="105.855158">
				<ele>-4.73</ele>
				<time>2026-06-12T00:45:09Z</time>
				<extensions>
					<ns3:TrackPointExtension>
						<ns3:speed>0.0</ns3:speed>
						<ns3:cad>0.0</ns3:cad>
					</ns3:TrackPointExtension>
				</extensions>
			</trkpt>
			<trkpt lat="21.024901" lon="105.85515434">
				<ele>-4.73</ele>
				<time>2026-06-12T00:45:10Z</time>
				<extensions>
					<ns3:TrackPointExtension>
						<ns3:speed>0.0</ns3:speed>
						<ns3:cad>42.0</ns3:cad>
					</ns3:TrackPointExtension>
				</extensions>
			</trkpt>
			<trkpt lat="21.02490233" lon="105.85514934">
				<ele>-4.67</ele>
				<time>2026-06-12T00:45:11Z</time>
				<extensions>
					<ns3:TrackPointExtension>
						<ns3:speed>0.96</ns3:speed>
						<ns3:cad>53.0</ns3:cad>
					</ns3:TrackPointExtension>
				</extensions>
			</trkpt>
			<trkpt lat="21.02490299" lon="105.85514235">
				<ele>-4.61</ele>
				<time>2026-06-12T00:45:12Z</time>
				<extensions>
					<ns3:TrackPointExtension>
						<ns3:speed>0.96</ns3:speed>
						<ns3:cad>53.0</ns3:cad>
					</ns3:TrackPointExtension>
				</extensions>
			</trkpt>
			<trkpt lat="21.02490499" lon="105.85513402">
				<ele>-4.55</ele>
				<time>2026-06-12T00:45:13Z</time>
				<extensions>
					<ns3:TrackPointExtension>
						<ns3:speed>0.94</ns3:speed>
						<ns3:cad>52.0</ns3:cad>
					</ns3:TrackPointExtension>
				</extensions>
			</trkpt>
			<trkpt lat="21.02490765" lon="105.85512502">
				<ele>-4.51</ele>
				<time>2026-06-12T00:45:14Z</time>
				<extensions>
					<ns3:TrackPointExtension>
						<ns3:speed>0.91</ns3:speed>
						<ns3:cad>52.0</ns3:cad>
					</ns3:TrackPointExtension>
				</extensions>
			</trkpt>
			<trkpt lat="21.02491098" lon="105.85511502">
				<ele>-4.46</ele>
				<time>2026-06-12T00:45:15Z</time>
				<extensions>
					<ns3:TrackPointExtension>
						<ns3:speed>0.89</ns3:speed>
						<ns3:cad>51.0</ns3:cad>
					</ns3:TrackPointExtension>
				</extensions>
			</trkpt>
			<trkpt lat="21.02491431" lon="105.85510569">
				<ele>-4.46</ele>
				<time>2026-06-12T00:45:16Z</time>
				<extensions>
					<ns3:TrackPointExtension>
						<ns3:speed>0.93</ns3:speed>
						<ns3:cad>38.0</ns3:cad>
					</ns3:TrackPointExtension>
				</extensions>
			</trkpt>
			<trkpt lat="21.02491797" lon="105.8550967">
				<ele>-4.44</ele>
				<time>2026-06-12T00:45:17Z</time>
				<extensions>
					<ns3:TrackPointExtension>
						<ns3:speed>0.91</ns3:speed>
						<ns3:cad>41.0</ns3:cad>
					</ns3:TrackPointExtension>
				</extensions>
			</trkpt>
			<trkpt lat="21.0249213" lon="105.85508937">
				<ele>-4.42</ele>
				<time>2026-06-12T00:45:18Z</time>
				<extensions>
					<ns3:TrackPointExtension>
						<ns3:speed>0.88</ns3:speed>
						<ns3:cad>41.0</ns3:cad>
					</ns3:TrackPointExtension>
				</extensions>
			</trkpt>
			<trkpt lat="21.02492463" lon="105.85508404">
				<ele>-4.4</ele>
				<time>2026-06-12T00:45:19Z</time>
				<extensions>
					<ns3:TrackPointExtension>
						<ns3:speed>0.88</ns3:speed>
						<ns3:cad>44.0</ns3:cad>
					</ns3:TrackPointExtension>
				</extensions>
			</trkpt>
			<trkpt lat="21.02492796" lon="105.85507971">
				<ele>-4.38</ele>
				<time>2026-06-12T00:45:20Z</time>
				<extensions>
					<ns3:TrackPointExtension>
						<ns3:speed>0.88</ns3:speed>
						<ns3:cad>51.0</ns3:cad>
					</ns3:TrackPointExtension>
				</extensions>
			</trkpt>
			<trkpt lat="21.02492929" lon="105.85507571">
				<ele>-4.37</ele>
				<time>2026-06-12T00:45:21Z</time>
				<extensions>
					<ns3:TrackPointExtension>
						<ns3:speed>0.86</ns3:speed>
						<ns3:cad>51.0</ns3:cad>
					</ns3:TrackPointExtension>
				</extensions>
			</trkpt>
			<trkpt lat="21.02492962" lon="105.85507272">
				<ele>-4.36</ele>
				<time>2026-06-12T00:45:22Z</time>
				<extensions>
					<ns3:TrackPointExtension>
						<ns3:speed>0.82</ns3:speed>
						<ns3:cad>51.0</ns3:cad>
					</ns3:TrackPointExtension>
				</extensions>
			</trkpt>
			<trkpt lat="21.02492696" lon="105.85507072">
				<ele>-4.35</ele>
				<time>2026-06-12T00:45:23Z</time>
				<extensions>
					<ns3:TrackPointExtension>
						<ns3:speed>0.78</ns3:speed>
						<ns3:cad>52.0</ns3:cad>
					</ns3:TrackPointExtension>
				</extensions>
			</trkpt>
			<trkpt lat="21.02492263" lon="105.85506973">
				<ele>-4.34</ele>
				<time>2026-06-12T00:45:24Z</time>
				<extensions>
					<ns3:TrackPointExtension>
						<ns3:speed>0.73</ns3:speed>
						<ns3:cad>53.0</ns3:cad>
					</ns3:TrackPointExtension>
				</extensions>
			</trkpt>
			<trkpt lat="21.0249163" lon="105.85506907">
				<ele>-4.33</ele>
				<time>2026-06-12T00:45:25Z</time>
				<extensions>
					<ns3:TrackPointExtension>
						<ns3:speed>0.0</ns3:speed>
						<ns3:cad>53.0</ns3:cad>
					</ns3:TrackPointExtension>
				</extensions>
			</trkpt>
			<trkpt lat="21.02490897" lon="105.85507006">
				<ele>-4.31</ele>
				<time>2026-06-12T00:45:26Z</time>
				<extensions>
					<ns3:TrackPointExtension>
						<ns3:speed>0.0</ns3:speed>
						<ns3:cad>0.0</ns3:cad>
					</ns3:TrackPointExtension>
				</extensions>
			</trkpt>
			<trkpt lat="21.02489964" lon="105.85507139">
				<ele>-4.3</ele>
				<time>2026-06-12T00:45:27Z</time>
				<extensions>
					<ns3:TrackPointExtension>
						<ns3:speed>1.11</ns3:speed>
						<ns3:cad>52.0</ns3:cad>
					</ns3:TrackPointExtension>
				</extensions>
			</trkpt>
			<trkpt lat="21.02489031" lon="105.8550654">
				<ele>-4.27</ele>
				<time>2026-06-12T00:45:28Z</time>
				<extensions>
					<ns3:TrackPointExtension>
						<ns3:speed>1.19</ns3:speed>
						<ns3:cad>49.0</ns3:cad>
					</ns3:TrackPointExtension>
				</extensions>
			</trkpt>
			<trkpt lat="21.02488132" lon="105.85505507">
				<ele>-4.25</ele>
				<time>2026-06-12T00:45:29Z</time>
				<extensions>
					<ns3:TrackPointExtension>
						<ns3:speed>1.36</ns3:speed>
						<ns3:cad>47.0</ns3:cad>
					</ns3:TrackPointExtension>
				</extensions>
			</trkpt>
			<trkpt lat="21.02487533" lon="105.85504374">
				<ele>-4.23</ele>
				<time>2026-06-12T00:45:30Z</time>
				<extensions>
					<ns3:TrackPointExtension>
						<ns3:speed>1.59</ns3:speed>
						<ns3:cad>46.0</ns3:cad>
					</ns3:TrackPointExtension>
				</extensions>
			</trkpt>
			<trkpt lat="21.024872" lon="105.85503275">
				<ele>-4.21</ele>
				<time>2026-06-12T00:45:31Z</time>
				<extensions>
					<ns3:TrackPointExtension>
						<ns3:speed>1.45</ns3:speed>
						<ns3:cad>44.0</ns3:cad>
						<ns3:hr>93</ns3:hr>
					</ns3:TrackPointExtension>
				</extensions>
			</trkpt>
			<trkpt lat="21.02486901" lon="105.85502375">
				<ele>-4.21</ele>
				<time>2026-06-12T00:45:32Z</time>
				<extensions>
					<ns3:TrackPointExtension>
						<ns3:speed>0.96</ns3:speed>
						<ns3:cad>43.0</ns3:cad>
						<ns3:hr>93</ns3:hr>
					</ns3:TrackPointExtension>
				</extensions>
			</trkpt>
			<trkpt lat="21.02486702" lon="105.85501875">
				<ele>-4.21</ele>
				<time>2026-06-12T00:45:33Z</time>
				<extensions>
					<ns3:TrackPointExtension>
						<ns3:speed>1.21</ns3:speed>
						<ns3:cad>42.0</ns3:cad>
						<ns3:hr>93</ns3:hr>
					</ns3:TrackPointExtension>
				</extensions>
			</trkpt>
			<trkpt lat="21.02486536" lon="105.85501342">
				<ele>-4.21</ele>
				<time>2026-06-12T00:45:34Z</time>
				<extensions>
					<ns3:TrackPointExtension>
						<ns3:speed>1.21</ns3:speed>
						<ns3:cad>37.0</ns3:cad>
						<ns3:hr>94</ns3:hr>
					</ns3:TrackPointExtension>
				</extensions>
			</trkpt>
			<trkpt lat="21.02486503" lon="105.85500676">
				<ele>-4.21</ele>
				<time>2026-06-12T00:45:35Z</time>
				<extensions>
					<ns3:TrackPointExtension>
						<ns3:speed>1.07</ns3:speed>
						<ns3:cad>36.0</ns3:cad>
						<ns3:hr>97</ns3:hr>
					</ns3:TrackPointExtension>
				</extensions>
			</trkpt>
			<trkpt lat="21.02486437" lon="105.85499876">
				<ele>-4.21</ele>
				<time>2026-06-12T00:45:36Z</time>
				<extensions>
					<ns3:TrackPointExtension>
						<ns3:speed>0.9</ns3:speed>
						<ns3:cad>36.0</ns3:cad>
						<ns3:hr>96</ns3:hr>
					</ns3:TrackPointExtension>
				</extensions>
			</trkpt>
			<trkpt lat="21.02486503" lon="105.85499043">
				<ele>-4.21</ele>
				<time>2026-06-12T00:45:37Z</time>
				<extensions>
					<ns3:TrackPointExtension>
						<ns3:speed>0.8</ns3:speed>
						<ns3:cad>41.0</ns3:cad>
						<ns3:hr>94</ns3:hr>
					</ns3:TrackPointExtension>
				</extensions>
			</trkpt>
			<trkpt lat="21.02486636" lon="105.85498143">
				<ele>-4.21</ele>
				<time>2026-06-12T00:45:38Z</time>
				<extensions>
					<ns3:TrackPointExtension>
						<ns3:speed>0.75</ns3:speed>
						<ns3:cad>43.0</ns3:cad>
						<ns3:hr>88</ns3:hr>
					</ns3:TrackPointExtension>
				</extensions>
			</trkpt>
			<trkpt lat="21.02486636" lon="105.8549721">
				<ele>-4.21</ele>
				<time>2026-06-12T00:45:39Z</time>
				<extensions>
					<ns3:TrackPointExtension>
						<ns3:speed>0.75</ns3:speed>
						<ns3:cad>0.0</ns3:cad>
						<ns3:hr>85</ns3:hr>
					</ns3:TrackPointExtension>
				</extensions>
			</trkpt>
			<trkpt lat="21.0248657" lon="105.85496144">
				<ele>-4.21</ele>
				<time>2026-06-12T00:45:40Z</time>
				<extensions>
					<ns3:TrackPointExtension>
						<ns3:speed>0.75</ns3:speed>
						<ns3:cad>0.0</ns3:cad>
						<ns3:hr>82</ns3:hr>
					</ns3:TrackPointExtension>
				</extensions>
			</trkpt>
			<trkpt lat="21.02486404" lon="105.85495144">
				<ele>-4.21</ele>
				<time>2026-06-12T00:45:41Z</time>
				<extensions>
					<ns3:TrackPointExtension>
						<ns3:speed>0.63</ns3:speed>
						<ns3:cad>0.0</ns3:cad>
						<ns3:hr>82</ns3:hr>
					</ns3:TrackPointExtension>
				</extensions>
			</trkpt>
			<trkpt lat="21.02486238" lon="105.85494078">
				<ele>-4.21</ele>
				<time>2026-06-12T00:45:42Z</time>
				<extensions>
					<ns3:TrackPointExtension>
						<ns3:speed>0.54</ns3:speed>
						<ns3:cad>0.0</ns3:cad>
						<ns3:hr>83</ns3:hr>
					</ns3:TrackPointExtension>
				</extensions>
			</trkpt>
			<trkpt lat="21.02482172" lon="105.85493345">
				<ele>-4.4</ele>
				<time>2026-06-12T00:48:20Z</time>
				<extensions>
					<ns3:TrackPointExtension>
						<ns3:speed>1.0</ns3:speed>
						<ns3:cad>51.0</ns3:cad>
						<ns3:hr>73</ns3:hr>
					</ns3:TrackPointExtension>
				</extensions>
			</trkpt>
			<trkpt lat="21.02484471" lon="105.85495211">
				<ele>-4.41</ele>
				<time>2026-06-12T00:48:21Z</time>
				<extensions>
					<ns3:TrackPointExtension>
						<ns3:speed>1.0</ns3:speed>
						<ns3:cad>51.0</ns3:cad>
						<ns3:hr>73</ns3:hr>
					</ns3:TrackPointExtension>
				</extensions>
			</trkpt>
			<trkpt lat="21.02486604" lon="105.85497311">
				<ele>-4.44</ele>
				<time>2026-06-12T00:48:22Z</time>
				<extensions>
					<ns3:TrackPointExtension>
						<ns3:speed>1.0</ns3:speed>
						<ns3:cad>51.0</ns3:cad>
						<ns3:hr>74</ns3:hr>
					</ns3:TrackPointExtension>
				</extensions>
			</trkpt>
			<trkpt lat="21.02487737" lon="105.8549861">
				<ele>-4.46</ele>
				<time>2026-06-12T00:48:23Z</time>
				<extensions>
					<ns3:TrackPointExtension>
						<ns3:speed>0.99</ns3:speed>
						<ns3:cad>51.0</ns3:cad>
						<ns3:hr>75</ns3:hr>
					</ns3:TrackPointExtension>
				</extensions>
			</trkpt>
			<trkpt lat="21.0248837" lon="105.85499476">
				<ele>-4.46</ele>
				<time>2026-06-12T00:48:24Z</time>
				<extensions>
					<ns3:TrackPointExtension>
						<ns3:speed>0.96</ns3:speed>
						<ns3:cad>51.0</ns3:cad>
						<ns3:hr>75</ns3:hr>
					</ns3:TrackPointExtension>
				</extensions>
			</trkpt>
			<trkpt lat="21.02489136" lon="105.85500809">
				<ele>-4.48</ele>
				<time>2026-06-12T00:48:25Z</time>
				<extensions>
					<ns3:TrackPointExtension>
						<ns3:speed>0.92</ns3:speed>
						<ns3:cad>51.0</ns3:cad>
						<ns3:hr>75</ns3:hr>
					</ns3:TrackPointExtension>
				</extensions>
			</trkpt>
			<trkpt lat="21.02489269" lon="105.85501675">
				<ele>-4.48</ele>
				<time>2026-06-12T00:48:26Z</time>
				<extensions>
					<ns3:TrackPointExtension>
						<ns3:speed>0.9</ns3:speed>
						<ns3:cad>51.0</ns3:cad>
						<ns3:hr>74</ns3:hr>
					</ns3:TrackPointExtension>
				</extensions>
			</trkpt>
			<trkpt lat="21.02489469" lon="105.85502274">
				<ele>-4.48</ele>
				<time>2026-06-12T00:48:27Z</time>
				<extensions>
					<ns3:TrackPointExtension>
						<ns3:speed>0.89</ns3:speed>
						<ns3:cad>50.0</ns3:cad>
						<ns3:hr>75</ns3:hr>
					</ns3:TrackPointExtension>
				</extensions>
			</trkpt>
			<trkpt lat="21.02490468" lon="105.8550314">
				<ele>-4.48</ele>
				<time>2026-06-12T00:48:28Z</time>
				<extensions>
					<ns3:TrackPointExtension>
						<ns3:speed>0.89</ns3:speed>
						<ns3:cad>49.0</ns3:cad>
						<ns3:hr>76</ns3:hr>
					</ns3:TrackPointExtension>
				</extensions>
			</trkpt>
			<trkpt lat="21.02491134" lon="105.85503873">
				<ele>-4.5</ele>
				<time>2026-06-12T00:48:29Z</time>
				<extensions>
					<ns3:TrackPointExtension>
						<ns3:speed>0.81</ns3:speed>
						<ns3:cad>49.0</ns3:cad>
						<ns3:hr>75</ns3:hr>
					</ns3:TrackPointExtension>
				</extensions>
			</trkpt>
			<trkpt lat="21.02491467" lon="105.85504606">
				<ele>-4.51</ele>
				<time>2026-06-12T00:48:30Z</time>
				<extensions>
					<ns3:TrackPointExtension>
						<ns3:speed>0.61</ns3:speed>
						<ns3:cad>48.0</ns3:cad>
						<ns3:hr>75</ns3:hr>
					</ns3:TrackPointExtension>
				</extensions>
			</trkpt>
			<trkpt lat="21.024916" lon="105.85505006">
				<ele>-4.52</ele>
				<time>2026-06-12T00:48:31Z</time>
				<extensions>
					<ns3:TrackPointExtension>
						<ns3:speed>0.46</ns3:speed>
						<ns3:cad>48.0</ns3:cad>
						<ns3:hr>75</ns3:hr>
					</ns3:TrackPointExtension>
				</extensions>
			</trkpt>
			<trkpt lat="21.02492266" lon="105.85505672">
				<ele>-4.52</ele>
				<time>2026-06-12T00:48:32Z</time>
				<extensions>
					<ns3:TrackPointExtension>
						<ns3:speed>0.32</ns3:speed>
						<ns3:cad>48.0</ns3:cad>
						<ns3:hr>76</ns3:hr>
					</ns3:TrackPointExtension>
				</extensions>
			</trkpt>
			<trkpt lat="21.02493032" lon="105.85506338">
				<ele>-4.52</ele>
				<time>2026-06-12T00:48:33Z</time>
				<extensions>
					<ns3:TrackPointExtension>
						<ns3:speed>0.22</ns3:speed>
						<ns3:cad>48.0</ns3:cad>
						<ns3:hr>76</ns3:hr>
					</ns3:TrackPointExtension>
				</extensions>
			</trkpt>
			<trkpt lat="21.02493331" lon="105.85506937">
				<ele>-4.53</ele>
				<time>2026-06-12T00:48:34Z</time>
				<extensions>
					<ns3:TrackPointExtension>
						<ns3:speed>0.23</ns3:speed>
						<ns3:cad>48.0</ns3:cad>
						<ns3:hr>76</ns3:hr>
					</ns3:TrackPointExtension>
				</extensions>
			</trkpt>
			<trkpt lat="21.02493564" lon="105.85507403">
				<ele>-4.54</ele>
				<time>2026-06-12T00:48:35Z</time>
				<extensions>
					<ns3:TrackPointExtension>
						<ns3:speed>0.26</ns3:speed>
						<ns3:cad>48.0</ns3:cad>
						<ns3:hr>75</ns3:hr>
					</ns3:TrackPointExtension>
				</extensions>
			</trkpt>
			<trkpt lat="21.0249373" lon="105.85508036">
				<ele>-4.54</ele>
				<time>2026-06-12T00:48:36Z</time>
				<extensions>
					<ns3:TrackPointExtension>
						<ns3:speed>0.27</ns3:speed>
						<ns3:cad>48.0</ns3:cad>
						<ns3:hr>75</ns3:hr>
					</ns3:TrackPointExtension>
				</extensions>
			</trkpt>
			<trkpt lat="21.02493697" lon="105.85508469">
				<ele>-4.54</ele>
				<time>2026-06-12T00:48:37Z</time>
				<extensions>
					<ns3:TrackPointExtension>
						<ns3:speed>0.31</ns3:speed>
						<ns3:cad>49.0</ns3:cad>
						<ns3:hr>75</ns3:hr>
					</ns3:TrackPointExtension>
				</extensions>
			</trkpt>
			<trkpt lat="21.0249373" lon="105.85508735">
				<ele>-4.54</ele>
				<time>2026-06-12T00:48:38Z</time>
				<extensions>
					<ns3:TrackPointExtension>
						<ns3:speed>0.35</ns3:speed>
						<ns3:cad>49.0</ns3:cad>
						<ns3:hr>74</ns3:hr>
					</ns3:TrackPointExtension>
				</extensions>
			</trkpt>
			<trkpt lat="21.02493896" lon="105.85508901">
				<ele>-4.56</ele>
				<time>2026-06-12T00:48:39Z</time>
				<extensions>
					<ns3:TrackPointExtension>
						<ns3:speed>0.36</ns3:speed>
						<ns3:cad>50.0</ns3:cad>
						<ns3:hr>73</ns3:hr>
					</ns3:TrackPointExtension>
				</extensions>
			</trkpt>
			<trkpt lat="21.02493996" lon="105.85508934">
				<ele>-4.57</ele>
				<time>2026-06-12T00:48:40Z</time>
				<extensions>
					<ns3:TrackPointExtension>
						<ns3:speed>0.36</ns3:speed>
						<ns3:cad>50.0</ns3:cad>
						<ns3:hr>73</ns3:hr>
					</ns3:TrackPointExtension>
				</extensions>
			</trkpt>
			<trkpt lat="21.02494062" lon="105.855092">
				<ele>-4.58</ele>
				<time>2026-06-12T00:48:41Z</time>
				<extensions>
					<ns3:TrackPointExtension>
						<ns3:speed>0.38</ns3:speed>
						<ns3:cad>49.0</ns3:cad>
						<ns3:hr>73</ns3:hr>
					</ns3:TrackPointExtension>
				</extensions>
			</trkpt>
			<trkpt lat="21.02494361" lon="105.85509566">
				<ele>-4.61</ele>
				<time>2026-06-12T00:48:42Z</time>
				<extensions>
					<ns3:TrackPointExtension>
						<ns3:speed>0.37</ns3:speed>
						<ns3:cad>48.0</ns3:cad>
						<ns3:hr>73</ns3:hr>
					</ns3:TrackPointExtension>
				</extensions>
			</trkpt>
			<trkpt lat="21.02494794" lon="105.85510066">
				<ele>-4.63</ele>
				<time>2026-06-12T00:48:43Z</time>
				<extensions>
					<ns3:TrackPointExtension>
						<ns3:speed>0.35</ns3:speed>
						<ns3:cad>48.0</ns3:cad>
						<ns3:hr>73</ns3:hr>
					</ns3:TrackPointExtension>
				</extensions>
			</trkpt>
			<trkpt lat="21.0249546" lon="105.85510699">
				<ele>-4.64</ele>
				<time>2026-06-12T00:48:44Z</time>
				<extensions>
					<ns3:TrackPointExtension>
						<ns3:speed>0.35</ns3:speed>
						<ns3:cad>47.0</ns3:cad>
						<ns3:hr>73</ns3:hr>
					</ns3:TrackPointExtension>
				</extensions>
			</trkpt>
			<trkpt lat="21.02496326" lon="105.85511532">
				<ele>-4.65</ele>
				<time>2026-06-12T00:48:45Z</time>
				<extensions>
					<ns3:TrackPointExtension>
						<ns3:speed>0.35</ns3:speed>
						<ns3:cad>45.0</ns3:cad>
						<ns3:hr>74</ns3:hr>
					</ns3:TrackPointExtension>
				</extensions>
			</trkpt>
			<trkpt lat="21.02497192" lon="105.85512332">
				<ele>-4.65</ele>
				<time>2026-06-12T00:48:46Z</time>
				<extensions>
					<ns3:TrackPointExtension>
						<ns3:speed>0.35</ns3:speed>
						<ns3:cad>45.0</ns3:cad>
						<ns3:hr>75</ns3:hr>
					</ns3:TrackPointExtension>
				</extensions>
			</trkpt>
			<trkpt lat="21.02498025" lon="105.85512998">
				<ele>-4.65</ele>
				<time>2026-06-12T00:48:47Z</time>
				<extensions>
					<ns3:TrackPointExtension>
						<ns3:speed>0.34</ns3:speed>
						<ns3:cad>46.0</ns3:cad>
						<ns3:hr>75</ns3:hr>
					</ns3:TrackPointExtension>
				</extensions>
			</trkpt>
			<trkpt lat="21.02498725" lon="105.85513398">
				<ele>-4.65</ele>
				<time>2026-06-12T00:48:48Z</time>
				<extensions>
					<ns3:TrackPointExtension>
						<ns3:speed>0.33</ns3:speed>
						<ns3:cad>48.0</ns3:cad>
						<ns3:hr>74</ns3:hr>
					</ns3:TrackPointExtension>
				</extensions>
			</trkpt>
			<trkpt lat="21.02499358" lon="105.85513897">
				<ele>-4.64</ele>
				<time>2026-06-12T00:48:49Z</time>
				<extensions>
					<ns3:TrackPointExtension>
						<ns3:speed>0.33</ns3:speed>
						<ns3:cad>0.0</ns3:cad>
						<ns3:hr>74</ns3:hr>
					</ns3:TrackPointExtension>
				</extensions>
			</trkpt>
			<trkpt lat="21.02499791" lon="105.8551423">
				<ele>-4.66</ele>
				<time>2026-06-12T00:48:50Z</time>
				<extensions>
					<ns3:TrackPointExtension>
						<ns3:speed>0.32</ns3:speed>
						<ns3:cad>0.0</ns3:cad>
						<ns3:hr>74</ns3:hr>
					</ns3:TrackPointExtension>
				</extensions>
			</trkpt>
			<trkpt lat="21.0249999" lon="105.85514396">
				<ele>-4.67</ele>
				<time>2026-06-12T00:48:51Z</time>
				<extensions>
					<ns3:TrackPointExtension>
						<ns3:speed>0.31</ns3:speed>
						<ns3:cad>0.0</ns3:cad>
						<ns3:hr>75</ns3:hr>
					</ns3:TrackPointExtension>
				</extensions>
			</trkpt>
			<trkpt lat="21.0250019" lon="105.85514562">
				<ele>-4.67</ele>
				<time>2026-06-12T00:48:52Z</time>
				<extensions>
					<ns3:TrackPointExtension>
						<ns3:speed>0.31</ns3:speed>
						<ns3:cad>0.0</ns3:cad>
						<ns3:hr>74</ns3:hr>
					</ns3:TrackPointExtension>
				</extensions>
			</trkpt>
			<trkpt lat="21.02500223" lon="105.85514628">
				<ele>-4.67</ele>
				<time>2026-06-12T00:48:53Z</time>
				<extensions>
					<ns3:TrackPointExtension>
						<ns3:speed>0.0</ns3:speed>
						<ns3:cad>0.0</ns3:cad>
						<ns3:hr>74</ns3:hr>
					</ns3:TrackPointExtension>
				</extensions>
			</trkpt>
			<trkpt lat="21.02500323" lon="105.85514628">
				<ele>-4.69</ele>
				<time>2026-06-12T00:48:54Z</time>
				<extensions>
					<ns3:TrackPointExtension>
						<ns3:speed>0.0</ns3:speed>
						<ns3:cad>0.0</ns3:cad>
						<ns3:hr>74</ns3:hr>
					</ns3:TrackPointExtension>
				</extensions>
			</trkpt>
			<trkpt lat="21.0250029" lon="105.85514628">
				<ele>-4.71</ele>
				<time>2026-06-12T00:48:55Z</time>
				<extensions>
					<ns3:TrackPointExtension>
						<ns3:speed>0.0</ns3:speed>
						<ns3:cad>0.0</ns3:cad>
						<ns3:hr>73</ns3:hr>
					</ns3:TrackPointExtension>
				</extensions>
			</trkpt>
			<trkpt lat="21.0250029" lon="105.85514628">
				<ele>-4.71</ele>
				<time>2026-06-12T00:48:56Z</time>
				<extensions>
					<ns3:TrackPointExtension>
						<ns3:speed>0.0</ns3:speed>
						<ns3:cad>0.0</ns3:cad>
						<ns3:hr>72</ns3:hr>
					</ns3:TrackPointExtension>
				</extensions>
			</trkpt>
			<trkpt lat="21.0250029" lon="105.85514628">
				<ele>-4.71</ele>
				<time>2026-06-12T00:48:57Z</time>
				<extensions>
					<ns3:TrackPointExtension>
						<ns3:speed>0.0</ns3:speed>
						<ns3:cad>0.0</ns3:cad>
						<ns3:hr>73</ns3:hr>
					</ns3:TrackPointExtension>
				</extensions>
			</trkpt>
			<trkpt lat="21.0250029" lon="105.85514628">
				<ele>-4.71</ele>
				<time>2026-06-12T00:48:58Z</time>
				<extensions>
					<ns3:TrackPointExtension>
						<ns3:speed>0.0</ns3:speed>
						<ns3:cad>0.0</ns3:cad>
						<ns3:hr>74</ns3:hr>
					</ns3:TrackPointExtension>
				</extensions>
			</trkpt>
			<trkpt lat="21.02500224" lon="105.85514562">
				<ele>-4.71</ele>
				<time>2026-06-12T00:48:59Z</time>
				<extensions>
					<ns3:TrackPointExtension>
						<ns3:speed>0.0</ns3:speed>
						<ns3:cad>0.0</ns3:cad>
						<ns3:hr>77</ns3:hr>
					</ns3:TrackPointExtension>
				</extensions>
			</trkpt>
			<trkpt lat="21.02500191" lon="105.85514595">
				<ele>-4.71</ele>
				<time>2026-06-12T00:49:00Z</time>
				<extensions>
					<ns3:TrackPointExtension>
						<ns3:speed>0.0</ns3:speed>
						<ns3:cad>0.0</ns3:cad>
						<ns3:hr>77</ns3:hr>
					</ns3:TrackPointExtension>
				</extensions>
			</trkpt>
			<trkpt lat="21.02500158" lon="105.85514628">
				<ele>-4.71</ele>
				<time>2026-06-12T00:49:01Z</time>
				<extensions>
					<ns3:TrackPointExtension>
						<ns3:speed>0.0</ns3:speed>
						<ns3:cad>0.0</ns3:cad>
						<ns3:hr>77</ns3:hr>
					</ns3:TrackPointExtension>
				</extensions>
			</trkpt>
			<trkpt lat="21.02500025" lon="105.85514628">
				<ele>-4.73</ele>
				<time>2026-06-12T00:49:02Z</time>
				<extensions>
					<ns3:TrackPointExtension>
						<ns3:speed>0.0</ns3:speed>
						<ns3:cad>0.0</ns3:cad>
						<ns3:hr>79</ns3:hr>
					</ns3:TrackPointExtension>
				</extensions>
			</trkpt>
			<trkpt lat="21.02499726" lon="105.85514628">
				<ele>-4.73</ele>
				<time>2026-06-12T00:49:03Z</time>
				<extensions>
					<ns3:TrackPointExtension>
						<ns3:speed>0.0</ns3:speed>
						<ns3:cad>0.0</ns3:cad>
						<ns3:hr>80</ns3:hr>
					</ns3:TrackPointExtension>
				</extensions>
			</trkpt>
			<trkpt lat="21.02499426" lon="105.85514761">
				<ele>-4.75</ele>
				<time>2026-06-12T00:49:04Z</time>
				<extensions>
					<ns3:TrackPointExtension>
						<ns3:speed>0.0</ns3:speed>
						<ns3:cad>0.0</ns3:cad>
						<ns3:hr>80</ns3:hr>
					</ns3:TrackPointExtension>
				</extensions>
			</trkpt>
			<trkpt lat="21.02499127" lon="105.8551506">
				<ele>-4.75</ele>
				<time>2026-06-12T00:49:05Z</time>
				<extensions>
					<ns3:TrackPointExtension>
						<ns3:speed>0.0</ns3:speed>
						<ns3:cad>0.0</ns3:cad>
						<ns3:hr>81</ns3:hr>
					</ns3:TrackPointExtension>
				</extensions>
			</trkpt>
			<trkpt lat="21.02498794" lon="105.85515626">
				<ele>-4.73</ele>
				<time>2026-06-12T00:49:06Z</time>
				<extensions>
					<ns3:TrackPointExtension>
						<ns3:speed>0.0</ns3:speed>
						<ns3:cad>0.0</ns3:cad>
						<ns3:hr>81</ns3:hr>
					</ns3:TrackPointExtension>
				</extensions>
			</trkpt>
			<trkpt lat="21.02498461" lon="105.85516426">
				<ele>-4.71</ele>
				<time>2026-06-12T00:49:07Z</time>
				<extensions>
					<ns3:TrackPointExtension>
						<ns3:speed>0.0</ns3:speed>
						<ns3:cad>0.0</ns3:cad>
						<ns3:hr>81</ns3:hr>
					</ns3:TrackPointExtension>
				</extensions>
			</trkpt>
			<trkpt lat="21.02498195" lon="105.85517359">
				<ele>-4.69</ele>
				<time>2026-06-12T00:49:08Z</time>
				<extensions>
					<ns3:TrackPointExtension>
						<ns3:speed>0.35</ns3:speed>
						<ns3:cad>0.0</ns3:cad>
						<ns3:hr>80</ns3:hr>
					</ns3:TrackPointExtension>
				</extensions>
			</trkpt>
			<trkpt lat="21.02497795" lon="105.85518425">
				<ele>-4.66</ele>
				<time>2026-06-12T00:49:09Z</time>
				<extensions>
					<ns3:TrackPointExtension>
						<ns3:speed>0.44</ns3:speed>
						<ns3:cad>51.0</ns3:cad>
						<ns3:hr>80</ns3:hr>
					</ns3:TrackPointExtension>
				</extensions>
			</trkpt>
			<trkpt lat="21.02497529" lon="105.85519225">
				<ele>-4.63</ele>
				<time>2026-06-12T00:49:10Z</time>
				<extensions>
					<ns3:TrackPointExtension>
						<ns3:speed>0.55</ns3:speed>
						<ns3:cad>51.0</ns3:cad>
						<ns3:hr>81</ns3:hr>
					</ns3:TrackPointExtension>
				</extensions>
			</trkpt>
			<trkpt lat="21.02497163" lon="105.85520124">
				<ele>-4.6</ele>
				<time>2026-06-12T00:49:11Z</time>
				<extensions>
					<ns3:TrackPointExtension>
						<ns3:speed>0.67</ns3:speed>
						<ns3:cad>52.0</ns3:cad>
						<ns3:hr>80</ns3:hr>
					</ns3:TrackPointExtension>
				</extensions>
			</trkpt>
			<trkpt lat="21.02496897" lon="105.85520857">
				<ele>-4.61</ele>
				<time>2026-06-12T00:49:12Z</time>
				<extensions>
					<ns3:TrackPointExtension>
						<ns3:speed>0.78</ns3:speed>
						<ns3:cad>52.0</ns3:cad>
						<ns3:hr>79</ns3:hr>
					</ns3:TrackPointExtension>
				</extensions>
			</trkpt>
			<trkpt lat="21.02496831" lon="105.85521723">
				<ele>-4.61</ele>
				<time>2026-06-12T00:49:13Z</time>
				<extensions>
					<ns3:TrackPointExtension>
						<ns3:speed>0.7</ns3:speed>
						<ns3:cad>52.0</ns3:cad>
						<ns3:hr>81</ns3:hr>
					</ns3:TrackPointExtension>
				</extensions>
			</trkpt>
			<trkpt lat="21.02496897" lon="105.85522823">
				<ele>-4.63</ele>
				<time>2026-06-12T00:49:14Z</time>
				<extensions>
					<ns3:TrackPointExtension>
						<ns3:speed>0.6</ns3:speed>
						<ns3:cad>52.0</ns3:cad>
					</ns3:TrackPointExtension>
				</extensions>
			</trkpt>
			<trkpt lat="21.0249713" lon="105.85523956">
				<ele>-4.64</ele>
				<time>2026-06-12T00:49:15Z</time>
				<extensions>
					<ns3:TrackPointExtension>
						<ns3:speed>0.74</ns3:speed>
						<ns3:cad>52.0</ns3:cad>
						<ns3:hr>80</ns3:hr>
					</ns3:TrackPointExtension>
				</extensions>
			</trkpt>
			<trkpt lat="21.02497463" lon="105.85524889">
				<ele>-4.66</ele>
				<time>2026-06-12T00:49:16Z</time>
				<extensions>
					<ns3:TrackPointExtension>
						<ns3:speed>0.92</ns3:speed>
						<ns3:cad>52.0</ns3:cad>
						<ns3:hr>79</ns3:hr>
					</ns3:TrackPointExtension>
				</extensions>
			</trkpt>
			<trkpt lat="21.02497863" lon="105.85525722">
				<ele>-4.67</ele>
				<time>2026-06-12T00:49:17Z</time>
				<extensions>
					<ns3:TrackPointExtension>
						<ns3:speed>0.97</ns3:speed>
						<ns3:cad>52.0</ns3:cad>
						<ns3:hr>80</ns3:hr>
					</ns3:TrackPointExtension>
				</extensions>
			</trkpt>
			<trkpt lat="21.02498296" lon="105.85526488">
				<ele>-4.66</ele>
				<time>2026-06-12T00:49:18Z</time>
				<extensions>
					<ns3:TrackPointExtension>
						<ns3:speed>0.99</ns3:speed>
						<ns3:cad>53.0</ns3:cad>
						<ns3:hr>79</ns3:hr>
					</ns3:TrackPointExtension>
				</extensions>
			</trkpt>
			<trkpt lat="21.02498629" lon="105.85527187">
				<ele>-4.66</ele>
				<time>2026-06-12T00:49:19Z</time>
				<extensions>
					<ns3:TrackPointExtension>
						<ns3:speed>1.01</ns3:speed>
						<ns3:cad>53.0</ns3:cad>
						<ns3:hr>79</ns3:hr>
					</ns3:TrackPointExtension>
				</extensions>
			</trkpt>
			<trkpt lat="21.02498895" lon="105.85527886">
				<ele>-4.65</ele>
				<time>2026-06-12T00:49:20Z</time>
				<extensions>
					<ns3:TrackPointExtension>
						<ns3:speed>1.02</ns3:speed>
						<ns3:cad>53.0</ns3:cad>
						<ns3:hr>79</ns3:hr>
					</ns3:TrackPointExtension>
				</extensions>
			</trkpt>
			<trkpt lat="21.02499261" lon="105.85528586">
				<ele>-4.63</ele>
				<time>2026-06-12T00:49:21Z</time>
				<extensions>
					<ns3:TrackPointExtension>
						<ns3:speed>1.02</ns3:speed>
						<ns3:cad>53.0</ns3:cad>
						<ns3:hr>80</ns3:hr>
					</ns3:TrackPointExtension>
				</extensions>
			</trkpt>
			<trkpt lat="21.02499494" lon="105.85529619">
				<ele>-4.62</ele>
				<time>2026-06-12T00:49:22Z</time>
				<extensions>
					<ns3:TrackPointExtension>
						<ns3:speed>1.0</ns3:speed>
						<ns3:cad>52.0</ns3:cad>
						<ns3:hr>80</ns3:hr>
					</ns3:TrackPointExtension>
				</extensions>
			</trkpt>
			<trkpt lat="21.02499328" lon="105.85530885">
				<ele>-4.61</ele>
				<time>2026-06-12T00:49:23Z</time>
				<extensions>
					<ns3:TrackPointExtension>
						<ns3:speed>0.97</ns3:speed>
						<ns3:cad>52.0</ns3:cad>
						<ns3:hr>81</ns3:hr>
					</ns3:TrackPointExtension>
				</extensions>
			</trkpt>
			<trkpt lat="21.02499128" lon="105.85532051">
				<ele>-4.59</ele>
				<time>2026-06-12T00:49:24Z</time>
				<extensions>
					<ns3:TrackPointExtension>
						<ns3:speed>0.97</ns3:speed>
						<ns3:cad>52.0</ns3:cad>
						<ns3:hr>81</ns3:hr>
					</ns3:TrackPointExtension>
				</extensions>
			</trkpt>
			<trkpt lat="21.02498862" lon="105.85533017">
				<ele>-4.55</ele>
				<time>2026-06-12T00:49:25Z</time>
				<extensions>
					<ns3:TrackPointExtension>
						<ns3:speed>0.97</ns3:speed>
						<ns3:cad>52.0</ns3:cad>
						<ns3:hr>80</ns3:hr>
					</ns3:TrackPointExtension>
				</extensions>
			</trkpt>
			<trkpt lat="21.02498629" lon="105.85533717">
				<ele>-4.48</ele>
				<time>2026-06-12T00:49:26Z</time>
				<extensions>
					<ns3:TrackPointExtension>
						<ns3:speed>0.96</ns3:speed>
						<ns3:cad>52.0</ns3:cad>
						<ns3:hr>81</ns3:hr>
					</ns3:TrackPointExtension>
				</extensions>
			</trkpt>
			<trkpt lat="21.02498496" lon="105.85534217">
				<ele>-4.38</ele>
				<time>2026-06-12T00:49:27Z</time>
				<extensions>
					<ns3:TrackPointExtension>
						<ns3:speed>0.96</ns3:speed>
						<ns3:cad>51.0</ns3:cad>
						<ns3:hr>81</ns3:hr>
					</ns3:TrackPointExtension>
				</extensions>
			</trkpt>
			<trkpt lat="21.0249833" lon="105.85534583">
				<ele>-4.27</ele>
				<time>2026-06-12T00:49:28Z</time>
				<extensions>
					<ns3:TrackPointExtension>
						<ns3:speed>0.96</ns3:speed>
						<ns3:cad>51.0</ns3:cad>
						<ns3:hr>81</ns3:hr>
					</ns3:TrackPointExtension>
				</extensions>
			</trkpt>
			<trkpt lat="21.0249833" lon="105.85534816">
				<ele>-4.17</ele>
				<time>2026-06-12T00:49:29Z</time>
				<extensions>
					<ns3:TrackPointExtension>
						<ns3:speed>0.81</ns3:speed>
						<ns3:cad>51.0</ns3:cad>
						<ns3:hr>81</ns3:hr>
					</ns3:TrackPointExtension>
				</extensions>
			</trkpt>
			<trkpt lat="21.02498297" lon="105.85534949">
				<ele>-4.1</ele>
				<time>2026-06-12T00:49:30Z</time>
				<extensions>
					<ns3:TrackPointExtension>
						<ns3:speed>0.53</ns3:speed>
						<ns3:cad>51.0</ns3:cad>
						<ns3:hr>82</ns3:hr>
					</ns3:TrackPointExtension>
				</extensions>
			</trkpt>
			<trkpt lat="21.02498297" lon="105.85535015">
				<ele>-4.04</ele>
				<time>2026-06-12T00:49:31Z</time>
				<extensions>
					<ns3:TrackPointExtension>
						<ns3:speed>0.28</ns3:speed>
						<ns3:cad>51.0</ns3:cad>
						<ns3:hr>82</ns3:hr>
					</ns3:TrackPointExtension>
				</extensions>
			</trkpt>
		</trkseg>
	</trk>
</gpx>
