{"type":"FeatureCollection","features":[{"type":"Feature","properties":{"id":"001","name":"Quận Ba Đình"},"geometry":{"type":"MultiPolygon","coordinates":[[[[105.801469498,21.0304271810001],[105.804091316,21.033517535],[105.806098907,21.0363643850001],[105.806311271,21.036855856],[105.806472267,21.0375445610001],[105.806473327,21.0377415460001],[105.80642726,21.038923702],[105.805610782,21.0447188140001],[105.805440414,21.045439764],[105.807914422,21.0454660840001],[105.807959268,21.0465965070001],[105.808902677,21.0464304010001],[105.809969372,21.0458498560001],[105.811344473,21.044970419],[105.812417334,21.0441783750001],[105.814424232,21.042939201],[105.815600981,21.0420869010001],[105.817819584,21.0417598980001],[105.820371802,21.0419096580001],[105.821771134,21.0417005240001],[105.824135604,21.040801554],[105.82535703,21.039887994],[105.82647146,21.039251488],[105.827567776,21.039006439],[105.828106394,21.039003816],[105.828692634,21.0391010020001],[105.829770368,21.0398283430001],[105.830542616,21.040822082],[105.830979756,21.0413015980001],[105.83141234,21.041603047],[105.831951819,21.0417521850001],[105.833083219,21.0417972390001],[105.835839078,21.0416019890001],[105.836074632,21.0435276000001],[105.836261173,21.0457611360001],[105.83643858,21.0463597570001],[105.836615084,21.0467948780001],[105.837024596,21.047392346],[105.838136179,21.049021834],[105.838839182,21.050217343],[105.839349963,21.0506244640001],[105.840731575,21.051345412],[105.842112289,21.051904629],[105.844167645,21.0499536770001],[105.84686847,21.051615235],[105.847972707,21.0524911260001],[105.849083243,21.053886376],[105.849175991,21.053680098],[105.855895644,21.0438675400001],[105.857163698,21.0419926700001],[105.852246537,21.040154393],[105.851354981,21.0407304180001],[105.848841642,21.040989127],[105.846896466,21.0402210240001],[105.845567811,21.040000945],[105.844482414,21.0401757820001],[105.841908374,21.0306276960001],[105.842629953,21.0290104920001],[105.842790286,21.0287423180001],[105.835971714,21.030752297],[105.835137623,21.031070469],[105.832383209,21.0319158950001],[105.830978624,21.032202957],[105.830453785,21.030733259],[105.829247857,21.0310233480001],[105.828296414,21.030540785],[105.827517254,21.0300167660001],[105.825916734,21.028500766],[105.823968218,21.0269755040001],[105.822634492,21.0258309160001],[105.820992369,21.0243041260001],[105.82022209,21.0235776540001],[105.820207512,21.023558381],[105.821075749,21.023363653],[105.819956789,21.021240736],[105.820126745,21.019212161],[105.818916231,21.0186495840001],[105.817919568,21.017761163],[105.816245277,21.0158551700001],[105.815116269,21.0165557350001],[105.814197269,21.0169903190001],[105.811999462,21.0180464430001],[105.810907319,21.018654251],[105.811436678,21.019512553],[105.810684545,21.0199422480001],[105.81223407,21.0227992000001],[105.811817666,21.0248112560001],[105.801469498,21.0304271810001]]]]}},{"type":"Feature","properties":{"id":"002","name":"Quận Hoàn Kiếm"},"geometry":{"type":"MultiPolygon","coordinates":[[[[105.842790286,21.0287423180001],[105.842629953,21.0290104920001],[105.841908374,21.0306276960001],[105.844482414,21.0401757820001],[105.845567811,21.040000945],[105.846896466,21.0402210240001],[105.848841642,21.040989127],[105.851354981,21.0407304180001],[105.852246537,21.040154393],[105.857163698,21.0419926700001],[105.857370421,21.041687025],[105.86211962,21.034212455],[105.86538848,21.0279870640001],[105.868260277,21.0215965310001],[105.866649584,21.0204663220001],[105.864311792,21.0192167550001],[105.86193773,21.0186748260001],[105.860661025,21.018650544],[105.858425313,21.0191656370001],[105.857710935,21.0187201690001],[105.856641138,21.018371997],[105.855068702,21.0179968730001],[105.854251668,21.017912589],[105.852336628,21.0180400460001],[105.851426936,21.018131247],[105.84935077,21.018492876],[105.847584862,21.018892291],[105.844213183,21.0196898570001],[105.843382637,21.019938101],[105.843338493,21.0244879970001],[105.843357093,21.0277942550001],[105.842790286,21.0287423180001]]]]}},{"type":"Feature","properties":{"id":"003","name":"Quận Tây Hồ"},"geometry":{"type":"MultiPolygon","coordinates":[[[[105.794909104,21.050823258],[105.7997856,21.0553794160001],[105.796573023,21.0582681490001],[105.804902513,21.0657847530001],[105.806833909,21.0674061240001],[105.803197618,21.0710280220001],[105.803297414,21.0734033360001],[105.803041125,21.0743057120001],[105.802436225,21.0751278170001],[105.799831485,21.0763689630001],[105.80027679,21.0782511210001],[105.799584371,21.0789917000001],[105.79845627,21.0796523980001],[105.796893364,21.0803970590001],[105.796196992,21.0804003270001],[105.795322596,21.079667112],[105.794626227,21.079670374],[105.794192729,21.0800001010001],[105.793764024,21.081230969],[105.79343192,21.0842637050001],[105.793107642,21.0887710330001],[105.793427934,21.0928882150001],[105.796096679,21.098025987],[105.802312945,21.0972236470001],[105.807684185,21.096327827],[105.813273129,21.094859328],[105.818512872,21.0927422450001],[105.824698122,21.088976799],[105.83104217,21.085210348],[105.836237361,21.081294429],[105.836429552,21.0811495560001],[105.838247203,21.079345663],[105.841036991,21.075761809],[105.842342641,21.072806159],[105.844621479,21.0665860550001],[105.84819676,21.055858071],[105.849083243,21.053886376],[105.847972707,21.0524911260001],[105.84686847,21.051615235],[105.844167645,21.0499536770001],[105.842112289,21.051904629],[105.840731575,21.051345412],[105.839349963,21.0506244640001],[105.838839182,21.050217343],[105.838136179,21.049021834],[105.837024596,21.047392346],[105.836615084,21.0467948780001],[105.83643858,21.0463597570001],[105.836261173,21.0457611360001],[105.836074632,21.0435276000001],[105.835839078,21.0416019890001],[105.833083219,21.0417972390001],[105.831951819,21.0417521850001],[105.83141234,21.041603047],[105.830979756,21.0413015980001],[105.830542616,21.040822082],[105.829770368,21.0398283430001],[105.828692634,21.0391010020001],[105.828106394,21.039003816],[105.827567776,21.039006439],[105.82647146,21.039251488],[105.82535703,21.039887994],[105.824135604,21.040801554],[105.821771134,21.0417005240001],[105.820371802,21.0419096580001],[105.817819584,21.0417598980001],[105.815600981,21.0420869010001],[105.814424232,21.042939201],[105.812417334,21.0441783750001],[105.811344473,21.044970419],[105.809969372,21.0458498560001],[105.808902677,21.0464304010001],[105.807959268,21.0465965070001],[105.807982448,21.047180697],[105.808135182,21.048258719],[105.808804595,21.049790683],[105.80952027,21.0517234760001],[105.809701656,21.052663061],[105.809707939,21.0538247550001],[105.809366094,21.055817915],[105.809139395,21.0573679660001],[105.809206539,21.0589166080001],[105.808795733,21.059029206],[105.807283174,21.0586357560001],[105.807223581,21.057260801],[105.807338132,21.0565674470001],[105.806995032,21.056405021],[105.805918024,21.05596733],[105.805779132,21.0558217400001],[105.805708239,21.055480835],[105.805493121,21.0540031210001],[105.805369313,21.053451211],[105.805161019,21.0532409510001],[105.804796844,21.0529339340001],[105.804016883,21.0523526310001],[105.803505412,21.051940689],[105.803071317,21.051471495],[105.802810456,21.051115232],[105.802218136,21.05011054],[105.801577681,21.0497885660001],[105.800954765,21.0495152500001],[105.800488064,21.0494037080001],[105.799338041,21.0491074890001],[105.798272782,21.047918958],[105.794909104,21.050823258]]]]}},{"type":"Feature","properties":{"id":"004","name":"Quận Long Biên"},"geometry":{"type":"MultiPolygon","coordinates":[[[[105.849083243,21.053886376],[105.84819676,21.055858071],[105.844621479,21.0665860550001],[105.842342641,21.072806159],[105.841036991,21.075761809],[105.838247203,21.079345663],[105.836429552,21.0811495560001],[105.836237361,21.081294429],[105.837556641,21.0818374240001],[105.838597663,21.0820576130001],[105.840916282,21.0818959160001],[105.842992409,21.0812847510001],[105.845146804,21.0803727250001],[105.848810982,21.0777256260001],[105.852632849,21.074702115],[105.856057256,21.072131185],[105.860833331,21.0682013740001],[105.863305584,21.066987087],[105.864982405,21.066527894],[105.865941214,21.0663727940001],[105.867220775,21.0663662630001],[105.86826129,21.0665111590001],[105.873153213,21.068814441],[105.883265382,21.074770808],[105.892093737,21.079907103],[105.895263044,21.0815803510001],[105.89710484,21.081946164],[105.899104794,21.0820106850001],[105.900302694,21.081703901],[105.900780762,21.0814009310001],[105.901044085,21.081171549],[105.901200871,21.0806449560001],[105.901331566,21.079895849],[105.901370469,21.079542003],[105.901548315,21.079088886],[105.901685325,21.078970914],[105.901743732,21.078920624],[105.902314049,21.0786054050001],[105.903950163,21.078144056],[105.907851736,21.0776705800001],[105.911754098,21.077332804],[105.914426085,21.0767978910001],[105.918179637,21.075781809],[105.920774653,21.0745003390001],[105.923268204,21.072404622],[105.926047512,21.069764134],[105.927577509,21.067764138],[105.929195987,21.0644962430001],[105.931009607,21.060749625],[105.932323749,21.057577576],[105.933221577,21.0551990120001],[105.934392773,21.051632129],[105.935347553,21.047143341],[105.936379482,21.043775017],[105.936862602,21.042453671],[105.937203123,21.0415251360001],[105.937462912,21.0409941140001],[105.937575761,21.0407714350001],[105.936978481,21.040022659],[105.933789654,21.0342061060001],[105.93163523,21.0348827670001],[105.930810385,21.033187503],[105.933463758,21.0321105940001],[105.934112193,21.0316289680001],[105.933782851,21.031046481],[105.932856697,21.0305203840001],[105.929648317,21.0296349490001],[105.928179016,21.02905868],[105.927633874,21.028689828],[105.926837261,21.027754492],[105.93195344,21.025836709],[105.938596258,21.0231145130001],[105.938712301,21.0230507640001],[105.937960479,21.0209010070001],[105.936242357,21.020954219],[105.927306884,21.01982759],[105.926442836,21.0197511750001],[105.926038953,21.0172790350001],[105.922498472,21.0172982710001],[105.920169554,21.010699115],[105.919778158,21.0031970790001],[105.920718007,21.001569472],[105.91532197,21.001679697],[105.912743471,21.0036405760001],[105.908088857,21.0030644030001],[105.907312014,21.0042311670001],[105.906446793,21.004317299],[105.905807358,21.004179037],[105.904598255,21.003658248],[105.904120831,21.00305246],[105.904028099,21.0019579470001],[105.904064578,21.0008627570001],[105.904060181,21.000132783],[105.903693273,20.998990539],[105.901372027,20.9966777170001],[105.899228453,20.9944872560001],[105.899135595,20.9945613900001],[105.894632515,20.998602067],[105.894113075,20.998986637],[105.886963133,21.002031877],[105.882425316,21.0035285010001],[105.882181482,21.003608919],[105.877728322,21.0048736970001],[105.875094123,21.0064394660001],[105.873779723,21.0076879760001],[105.872309115,21.010489481],[105.870199214,21.0170195210001],[105.86832484,21.021452863],[105.868260277,21.0215965310001],[105.86538848,21.0279870640001],[105.86211962,21.034212455],[105.857370421,21.041687025],[105.857163698,21.0419926700001],[105.855895644,21.0438675400001],[105.849175991,21.053680098],[105.849083243,21.053886376]]]]}},{"type":"Feature","properties":{"id":"005","name":"Quận Cầu Giấy"},"geometry":{"type":"MultiPolygon","coordinates":[[[[105.792565657,21.00095602],[105.791096921,21.00294168],[105.789583041,21.006644936],[105.78928001,21.007339384],[105.790146299,21.0087791990001],[105.790150557,21.009587734],[105.788453118,21.012139576],[105.789880944,21.013643792],[105.782968722,21.0203053380001],[105.784027205,21.0233036540001],[105.784155632,21.0244003760001],[105.783717004,21.0293985340001],[105.781370332,21.031401368],[105.779102983,21.0318737970001],[105.775484827,21.0321213550001],[105.773771638,21.032995467],[105.772918163,21.034038912],[105.771882126,21.0353719510001],[105.771193601,21.0358408050001],[105.768365039,21.036452103],[105.76869952,21.039685552],[105.768811962,21.040772491],[105.768669682,21.0426388160001],[105.768803747,21.042961565],[105.775034058,21.048487412],[105.77978647,21.0494272010001],[105.781203189,21.044244652],[105.786129042,21.044218088],[105.786292336,21.046188654],[105.790547299,21.046056164],[105.79375398,21.046126046],[105.793890386,21.048192235],[105.793021353,21.049528611],[105.794909104,21.050823258],[105.798272782,21.047918958],[105.799338041,21.0491074890001],[105.800488064,21.0494037080001],[105.800954765,21.0495152500001],[105.801577681,21.0497885660001],[105.802218136,21.05011054],[105.802810456,21.051115232],[105.803071317,21.051471495],[105.803505412,21.051940689],[105.804016883,21.0523526310001],[105.804796844,21.0529339340001],[105.805161019,21.0532409510001],[105.805369313,21.053451211],[105.805493121,21.0540031210001],[105.805708239,21.055480835],[105.805779132,21.0558217400001],[105.805918024,21.05596733],[105.806995032,21.056405021],[105.807338132,21.0565674470001],[105.807223581,21.057260801],[105.807283174,21.0586357560001],[105.808795733,21.059029206],[105.809206539,21.0589166080001],[105.809139395,21.0573679660001],[105.809366094,21.055817915],[105.809707939,21.0538247550001],[105.809701656,21.052663061],[105.80952027,21.0517234760001],[105.808804595,21.049790683],[105.808135182,21.048258719],[105.807982448,21.047180697],[105.807959268,21.0465965070001],[105.807914422,21.0454660840001],[105.805440414,21.045439764],[105.805610782,21.0447188140001],[105.80642726,21.038923702],[105.806473327,21.0377415460001],[105.806472267,21.0375445610001],[105.806311271,21.036855856],[105.806098907,21.0363643850001],[105.804091316,21.033517535],[105.801469498,21.0304271810001],[105.801136707,21.030034904],[105.799109012,21.0276915690001],[105.798292429,21.0266405850001],[105.798102779,21.0261726580001],[105.797975525,21.0257044470001],[105.797908774,21.024884345],[105.797905656,21.02429834],[105.798276827,21.023710587],[105.802814138,21.017728973],[105.804038316,21.0162410890001],[105.804833324,21.0152619740001],[105.806519549,21.013650881],[105.808180235,21.0123709710001],[105.808942743,21.011881337],[105.809925531,21.01118992],[105.812564537,21.0096115910001],[105.813609039,21.0088246940001],[105.814017024,21.0084007090001],[105.812329408,21.006905014],[105.811976316,21.0068118410001],[105.809856739,21.0085186420001],[105.806137258,21.0075510340001],[105.804320121,21.0068481970001],[105.802602731,21.0059551520001],[105.801037741,21.0052985140001],[105.797101376,21.003894131],[105.795031229,21.0029552250001],[105.792565657,21.00095602]]]]}},{"type":"Feature","properties":{"id":"006","name":"Quận Đống Đa"},"geometry":{"type":"MultiPolygon","coordinates":[[[[105.814017024,21.0084007090001],[105.813609039,21.0088246940001],[105.812564537,21.0096115910001],[105.809925531,21.01118992],[105.808942743,21.011881337],[105.808180235,21.0123709710001],[105.806519549,21.013650881],[105.804833324,21.0152619740001],[105.804038316,21.0162410890001],[105.802814138,21.017728973],[105.798276827,21.023710587],[105.797905656,21.02429834],[105.797908774,21.024884345],[105.797975525,21.0257044470001],[105.798102779,21.0261726580001],[105.798292429,21.0266405850001],[105.799109012,21.0276915690001],[105.801136707,21.030034904],[105.801469498,21.0304271810001],[105.811817666,21.0248112560001],[105.81223407,21.0227992000001],[105.810684545,21.0199422480001],[105.811436678,21.019512553],[105.810907319,21.018654251],[105.811999462,21.0180464430001],[105.814197269,21.0169903190001],[105.815116269,21.0165557350001],[105.816245277,21.0158551700001],[105.817919568,21.017761163],[105.818916231,21.0186495840001],[105.820126745,21.019212161],[105.819956789,21.021240736],[105.821075749,21.023363653],[105.820207512,21.023558381],[105.82022209,21.0235776540001],[105.820992369,21.0243041260001],[105.822634492,21.0258309160001],[105.823968218,21.0269755040001],[105.825916734,21.028500766],[105.827517254,21.0300167660001],[105.828296414,21.030540785],[105.829247857,21.0310233480001],[105.830453785,21.030733259],[105.830978624,21.032202957],[105.832383209,21.0319158950001],[105.835137623,21.031070469],[105.835971714,21.030752297],[105.842790286,21.0287423180001],[105.843357093,21.0277942550001],[105.843338493,21.0244879970001],[105.843382637,21.019938101],[105.843423373,21.0157398690001],[105.843442033,21.009634051],[105.843291399,20.9989635420001],[105.843095435,20.9973581690001],[105.840921623,20.997844521],[105.835929631,20.998959961],[105.836199661,20.99896018],[105.835989555,20.999013985],[105.835970023,20.9990207760001],[105.835418216,21.0000073210001],[105.834856459,21.0005418480001],[105.833357424,21.0013406210001],[105.830895345,21.0020294940001],[105.82765742,21.002744992],[105.824107449,21.0034660150001],[105.822417791,21.003552277],[105.820980527,21.003271893],[105.819662975,21.003004908],[105.819163842,21.002929221],[105.81787635,21.002322586],[105.817780629,21.002550801],[105.816484536,21.0050768840001],[105.815974581,21.0060023990001],[105.815343532,21.007022159],[105.814017024,21.0084007090001]]]]}},{"type":"Feature","properties":{"id":"007","name":"Quận Hai Bà Trưng"},"geometry":{"type":"MultiPolygon","coordinates":[[[[105.842420415,20.9916070510001],[105.842414377,20.9922044730001],[105.842614762,20.994423996],[105.842918554,20.996393687],[105.843025546,20.996785618],[105.843095435,20.9973581690001],[105.843291399,20.9989635420001],[105.843442033,21.009634051],[105.843423373,21.0157398690001],[105.843382637,21.019938101],[105.844213183,21.0196898570001],[105.847584862,21.018892291],[105.84935077,21.018492876],[105.851426936,21.018131247],[105.852336628,21.0180400460001],[105.854251668,21.017912589],[105.855068702,21.0179968730001],[105.856641138,21.018371997],[105.857710935,21.0187201690001],[105.858425313,21.0191656370001],[105.860661025,21.018650544],[105.86193773,21.0186748260001],[105.864311792,21.0192167550001],[105.866649584,21.0204663220001],[105.868260277,21.0215965310001],[105.86832484,21.021452863],[105.870199214,21.0170195210001],[105.872309115,21.010489481],[105.873779723,21.0076879760001],[105.875094123,21.0064394660001],[105.877728322,21.0048736970001],[105.882181482,21.003608919],[105.882425316,21.0035285010001],[105.88151277,21.0010866540001],[105.875669303,21.0029059230001],[105.875162545,21.0014420480001],[105.878021567,21.0004594530001],[105.878329849,20.9999299260001],[105.878325388,20.999167377],[105.87756729,20.997323523],[105.87569702,20.9969811990001],[105.875621062,20.994635225],[105.872941282,20.99429703],[105.871755027,20.9937751800001],[105.870134415,20.993519496],[105.866617533,20.9938014050001],[105.866468624,20.994975348],[105.863733519,20.995047899],[105.862836511,20.9961669780001],[105.862120512,20.996341537],[105.86227934,20.995276978],[105.862494626,20.9934678270001],[105.860414132,20.992915394],[105.860061877,20.993975237],[105.861351107,20.9944134200001],[105.861175559,20.9950430120001],[105.860740164,20.995900379],[105.857256003,20.99512114],[105.857160324,20.993560519],[105.856979761,20.9933160840001],[105.856686595,20.99331756],[105.85369248,20.993807953],[105.852217528,20.9938650340001],[105.850991347,20.9930964550001],[105.850914675,20.9927681830001],[105.850938281,20.992533301],[105.851307639,20.9917098070001],[105.85128084,20.9913812770001],[105.850931099,20.9912656430001],[105.848461693,20.9911136370001],[105.84783834,20.991116741],[105.847316179,20.991377577],[105.844961433,20.9938777140001],[105.844189909,20.994427081],[105.843272861,20.992945853],[105.843129008,20.992460303],[105.843123796,20.991532013],[105.842420415,20.9916070510001]]]]}},{"type":"Feature","properties":{"id":"008","name":"Quận Hoàng Mai"},"geometry":{"type":"MultiPolygon","coordinates":[[[[105.899228453,20.9944872560001],[105.899245936,20.9944733030001],[105.906740073,20.9884901090001],[105.908561642,20.986470083],[105.909162455,20.9847437400001],[105.909152028,20.9830206680001],[105.908679717,20.9807256780001],[105.904806901,20.97198702],[105.901871065,20.9665459820001],[105.896330431,20.959826246],[105.889862591,20.951244408],[105.886495428,20.9463508060001],[105.879740315,20.9507431060001],[105.874817242,20.953313602],[105.874415107,20.952641946],[105.873613023,20.9516729010001],[105.871774712,20.9505594340001],[105.871214178,20.9500382890001],[105.870729827,20.948917888],[105.870332917,20.949144496],[105.867792997,20.9506545940001],[105.866838575,20.9508840300001],[105.865008065,20.9511178970001],[105.863416914,20.9514253880001],[105.86215806,20.9541266530001],[105.861371032,20.9557775160001],[105.860427268,20.957878313],[105.858623692,20.9577484110001],[105.858042759,20.957464321],[105.855712661,20.9561823120001],[105.852562387,20.954378779],[105.849543951,20.9530596910001],[105.847216266,20.9521818280001],[105.846515075,20.952060745],[105.845523551,20.9562311240001],[105.845216744,20.958328683],[105.838231284,20.9579191330001],[105.835333762,20.9577389020001],[105.834298247,20.95754952],[105.833674886,20.957066449],[105.832838722,20.9555149390001],[105.831452164,20.9526291330001],[105.830948516,20.9527896550001],[105.829604847,20.953792589],[105.827684922,20.955160624],[105.825125187,20.9565566090001],[105.819512163,20.9586421760001],[105.817884883,20.9591605960001],[105.819526353,20.9614129290001],[105.824940265,20.9677064210001],[105.826190758,20.969353186],[105.823712159,20.970142981],[105.820818655,20.9707402880001],[105.813990708,20.970773036],[105.812026664,20.9710740840001],[105.806579285,20.972929315],[105.80665957,20.973432964],[105.806870657,20.9742097650001],[105.808006082,20.978284203],[105.809019029,20.9805374690001],[105.809192505,20.9810836620001],[105.812934044,20.980555731],[105.818532337,20.981433087],[105.819209035,20.984065899],[105.819839603,20.985380902],[105.820443596,20.986146982],[105.825177298,20.992931218],[105.826350101,20.994079282],[105.827613421,20.9949384540001],[105.828043813,20.9950517290001],[105.828411693,20.9949634120001],[105.828748236,20.9947598690001],[105.830702602,20.992904353],[105.834209348,20.9883564630001],[105.835307445,20.9863448630001],[105.83507935,20.9861327460001],[105.834701905,20.985578746],[105.834592571,20.9849815000001],[105.834639535,20.983827628],[105.834846007,20.9829832820001],[105.83501995,20.982481421],[105.842486752,20.985044831],[105.842420415,20.9916070510001],[105.843123796,20.991532013],[105.843129008,20.992460303],[105.843272861,20.992945853],[105.844189909,20.994427081],[105.844961433,20.9938777140001],[105.847316179,20.991377577],[105.84783834,20.991116741],[105.848461693,20.9911136370001],[105.850931099,20.9912656430001],[105.85128084,20.9913812770001],[105.851307639,20.9917098070001],[105.850938281,20.992533301],[105.850914675,20.9927681830001],[105.850991347,20.9930964550001],[105.852217528,20.9938650340001],[105.85369248,20.993807953],[105.856686595,20.99331756],[105.856979761,20.9933160840001],[105.857160324,20.993560519],[105.857256003,20.99512114],[105.860740164,20.995900379],[105.861175559,20.9950430120001],[105.861351107,20.9944134200001],[105.860061877,20.993975237],[105.860414132,20.992915394],[105.862494626,20.9934678270001],[105.86227934,20.995276978],[105.862120512,20.996341537],[105.862836511,20.9961669780001],[105.863733519,20.995047899],[105.866468624,20.994975348],[105.866617533,20.9938014050001],[105.870134415,20.993519496],[105.871755027,20.9937751800001],[105.872941282,20.99429703],[105.875621062,20.994635225],[105.87569702,20.9969811990001],[105.87756729,20.997323523],[105.878325388,20.999167377],[105.878329849,20.9999299260001],[105.878021567,21.0004594530001],[105.875162545,21.0014420480001],[105.875669303,21.0029059230001],[105.88151277,21.0010866540001],[105.882425316,21.0035285010001],[105.886963133,21.002031877],[105.894113075,20.998986637],[105.894632515,20.998602067],[105.899135595,20.9945613900001],[105.899228453,20.9944872560001]]]]}},{"type":"Feature","properties":{"id":"009","name":"Quận Thanh Xuân"},"geometry":{"type":"MultiPolygon","coordinates":[[[[105.796504371,20.983196693],[105.794442119,20.9856147080001],[105.797227083,20.987553157],[105.798419367,20.988442584],[105.796546533,20.9902792250001],[105.795186076,20.9912396570001],[105.795807737,20.9925952900001],[105.795816057,20.994165298],[105.795195205,20.995247615],[105.794779049,20.995543938],[105.794423481,20.9959816200001],[105.79565668,20.9977208080001],[105.794137291,20.9981641410001],[105.792189005,20.998827572],[105.791069196,20.9997675720001],[105.792565657,21.00095602],[105.795031229,21.0029552250001],[105.797101376,21.003894131],[105.801037741,21.0052985140001],[105.802602731,21.0059551520001],[105.804320121,21.0068481970001],[105.806137258,21.0075510340001],[105.809856739,21.0085186420001],[105.811976316,21.0068118410001],[105.812329408,21.006905014],[105.814017024,21.0084007090001],[105.815343532,21.007022159],[105.815974581,21.0060023990001],[105.816484536,21.0050768840001],[105.817780629,21.002550801],[105.81787635,21.002322586],[105.819163842,21.002929221],[105.819662975,21.003004908],[105.820980527,21.003271893],[105.822417791,21.003552277],[105.824107449,21.0034660150001],[105.82765742,21.002744992],[105.830895345,21.0020294940001],[105.833357424,21.0013406210001],[105.834856459,21.0005418480001],[105.835418216,21.0000073210001],[105.835970023,20.9990207760001],[105.835989555,20.999013985],[105.836199661,20.99896018],[105.835929631,20.998959961],[105.840921623,20.997844521],[105.843095435,20.9973581690001],[105.843025546,20.996785618],[105.842918554,20.996393687],[105.842614762,20.994423996],[105.842414377,20.9922044730001],[105.842420415,20.9916070510001],[105.842486752,20.985044831],[105.83501995,20.982481421],[105.834846007,20.9829832820001],[105.834639535,20.983827628],[105.834592571,20.9849815000001],[105.834701905,20.985578746],[105.83507935,20.9861327460001],[105.835307445,20.9863448630001],[105.834209348,20.9883564630001],[105.830702602,20.992904353],[105.828748236,20.9947598690001],[105.828411693,20.9949634120001],[105.828043813,20.9950517290001],[105.827613421,20.9949384540001],[105.826350101,20.994079282],[105.825177298,20.992931218],[105.820443596,20.986146982],[105.819839603,20.985380902],[105.819209035,20.984065899],[105.818532337,20.981433087],[105.812934044,20.980555731],[105.809192505,20.9810836620001],[105.809119608,20.981581116],[105.809047093,20.9821495840001],[105.808986357,20.9828527440001],[105.80894164,20.98349747],[105.808839651,20.98373423],[105.808440186,20.9840536890001],[105.807753178,20.9844141940001],[105.803101185,20.9859513490001],[105.802270761,20.987749143],[105.801204,20.986971983],[105.800570423,20.9877207690001],[105.799291837,20.987071923],[105.800959846,20.98466297],[105.799601006,20.9834506070001],[105.798542023,20.984128614],[105.797807888,20.984132054],[105.797131221,20.984044275],[105.796504371,20.983196693]]]]}},{"type":"Feature","properties":{"id":"016","name":"Huyện Sóc Sơn"},"geometry":{"type":"MultiPolygon","coordinates":[[[[105.894191117,21.327071931],[105.895751404,21.3274114450001],[105.896879719,21.3275049440001],[105.897685202,21.3273386290001],[105.898373508,21.3268488950001],[105.899001988,21.325994936],[105.899368063,21.3242618100001],[105.898766487,21.31685659],[105.898451933,21.3139366290001],[105.897506717,21.3113031400001],[105.897352003,21.310260521],[105.89723529,21.3090737160001],[105.897450252,21.307820436],[105.898553774,21.3062841670001],[105.90047291,21.3046739530001],[105.90235598,21.303237826],[105.903982117,21.3022552200001],[105.905981729,21.301687966],[105.90761296,21.301540044],[105.90917299,21.3018794430001],[105.912222763,21.303184625],[105.914905097,21.305048255],[105.915723312,21.305391624],[105.916317243,21.305457947],[105.916910743,21.3054547140001],[105.91742789,21.3051040840001],[105.917794074,21.3043369000001],[105.917715129,21.303572135],[105.917034072,21.3014194100001],[105.916126604,21.2986418400001],[105.915897157,21.297530081],[105.915892416,21.29676492],[105.916108929,21.2957898650001],[105.916698076,21.2950910270001],[105.917880673,21.294388951],[105.919214643,21.2941729830001],[105.922032669,21.294018448],[105.926337808,21.294412187],[105.929160208,21.294953128],[105.930347984,21.295085698],[105.930866386,21.294943701],[105.931417269,21.294071128],[105.931556161,21.293163577],[105.931551486,21.292421528],[105.931083161,21.2918129980001],[105.929618554,21.291159442],[105.925156438,21.2893753880001],[105.923665037,21.2881314480001],[105.923066398,21.2872999780001],[105.922762311,21.286119081],[105.922452581,21.2840338940001],[105.922284285,21.280834924],[105.922402706,21.27603444],[105.922568402,21.2728684300001],[105.922927981,21.2710578190001],[105.923437194,21.2694550860001],[105.924097766,21.268338455],[105.926451565,21.2651951990001],[105.928733286,21.262400131],[105.929760684,21.2606553910001],[105.930932454,21.258283782],[105.932325359,21.255702263],[105.934640619,21.2523852080001],[105.936406393,21.250149402],[105.938026447,21.248331765],[105.938392395,21.2475645320001],[105.938609581,21.246728569],[105.938750408,21.2455452190001],[105.938522653,21.244711733],[105.937609373,21.2433734590001],[105.936786645,21.244439517],[105.936195753,21.2448759050001],[105.93514158,21.245067368],[105.932899361,21.245141656],[105.928478173,21.2448566950001],[105.9271586,21.2448020860001],[105.926498243,21.2446819690001],[105.926099783,21.244251051],[105.926095918,21.2436323490001],[105.927008886,21.241956772],[105.927791472,21.2405294000001],[105.927917962,21.239662498],[105.927649109,21.238859631],[105.926125923,21.2378780390001],[105.921954157,21.2352403730001],[105.921406426,21.235096807],[105.921141196,21.234181418],[105.920977284,21.23321929],[105.920775266,21.2324796030001],[105.920020929,21.2318170020001],[105.919070788,21.2314147480001],[105.91847831,21.231380933],[105.918043981,21.231383297],[105.917610578,21.2315338120001],[105.916783256,21.231834626],[105.916113851,21.2321345780001],[105.915403375,21.2321754760001],[105.913942002,21.2321093240001],[105.911096423,21.2316802400001],[105.910503717,21.231609355],[105.909277664,21.231282618],[105.908841179,21.231178551],[105.908484403,21.231283638],[105.908127933,21.2314403020001],[105.907305342,21.2318058130001],[105.907058369,21.2318845140001],[105.906865914,21.231885548],[105.906755625,21.2318345530001],[105.906589725,21.2316807],[105.906422554,21.231320521],[105.906143521,21.230651445],[105.906142261,21.230445119],[105.906194258,21.2299548030001],[105.906519602,21.229205107],[105.906736864,21.2287654900001],[105.906774715,21.22821077],[105.906746121,21.2280303850001],[105.90657927,21.2277217830001],[105.906301819,21.227310609],[105.905720702,21.22669474],[105.90549918,21.2264380180001],[105.905332657,21.226180991],[105.905192199,21.2256917080001],[105.905106426,21.2251505520001],[105.904961723,21.223964929],[105.90472447,21.2226112070001],[105.904892058,21.2224322820001],[105.905748638,21.2223039400001],[105.906476355,21.222671275],[105.908860769,21.224329014],[105.909653689,21.224572236],[105.910378759,21.224506449],[105.911102309,21.224193181],[105.911886115,21.2229514970001],[105.914950645,21.2172426170001],[105.915659647,21.214578245],[105.915652014,21.213340825],[105.915760632,21.2095659930001],[105.91569087,21.208947645],[105.915357725,21.208392593],[105.914300338,21.208027089],[105.912189789,21.207976634],[105.910870166,21.2078600090001],[105.910274025,21.207430113],[105.910073543,21.206998083],[105.910070131,21.206441243],[105.910133043,21.205945924],[105.910656024,21.205200631],[105.912956381,21.2039507490001],[105.913480482,21.203391057],[105.913477819,21.202957961],[105.913209869,21.2022788140001],[105.911820564,21.2015438450001],[105.911150134,21.2013093640001],[105.91017716,21.2007262290001],[105.908877724,21.199862603],[105.908130552,21.199169527],[105.907245983,21.198096945],[105.906561719,21.1966430420001],[105.906130387,21.1949039470001],[105.90662929,21.19371391],[105.906817165,21.1921052600001],[105.906817329,21.1921052230001],[105.906739644,21.190186554],[105.90632404,21.186909504],[105.906157277,21.1857900840001],[105.905648269,21.183410699],[105.905211093,21.1828009060001],[105.904557404,21.1825743740001],[105.902689603,21.1826260990001],[105.90148795,21.182507291],[105.900826919,21.1820378140001],[105.900457754,21.181321209],[105.900453633,21.1806406220001],[105.901230058,21.1786766760001],[105.901225934,21.177996089],[105.901025896,21.1776259210001],[105.900431771,21.1775053380001],[105.898517947,21.177206154],[105.896406714,21.176969865],[105.895880763,21.1772201490001],[105.89588449,21.1778388600001],[105.897231238,21.1793501490001],[105.897819283,21.180098179],[105.897770488,21.18065426],[105.897630672,21.1815661680001],[105.896910373,21.182617841],[105.896092912,21.183624465],[105.895175264,21.18408491],[105.894013751,21.1842732870001],[105.892270655,21.184419174],[105.890382508,21.184611369],[105.889705405,21.184797164],[105.889222891,21.185118619],[105.888742009,21.185713408],[105.888312833,21.1868546210001],[105.887598425,21.1889085070001],[105.887263674,21.189639201],[105.886926202,21.1899143260001],[105.886393318,21.1899171220001],[105.885600699,21.189693558],[105.884957707,21.188918191],[105.883662337,21.188006692],[105.881699558,21.187056935],[105.879961906,21.1865651160001],[105.878092556,21.1863661370001],[105.876847395,21.186414341],[105.876359607,21.186667313],[105.876094941,21.1870443400001],[105.876054893,21.1877958640001],[105.876237233,21.188546236],[105.876773698,21.1890025880001],[105.877442125,21.1892078120001],[105.87957715,21.1891967130001],[105.880289079,21.1892347460001],[105.881180158,21.189480544],[105.881938793,21.1898939810001],[105.88256671,21.190767239],[105.88342176,21.1924323540001],[105.884956217,21.1961391520001],[105.885945767,21.197970508],[105.886707198,21.1988430390001],[105.887422405,21.1994236370001],[105.888715902,21.2000011910001],[105.890589938,21.2009513360001],[105.89139489,21.2016566630001],[105.891799243,21.2023223620001],[105.89180225,21.202823219],[105.891715295,21.20315759],[105.891184994,21.203744742],[105.889146722,21.20509115],[105.887703853,21.205578743],[105.886903632,21.205666427],[105.886503267,21.205668529],[105.885878746,21.2053796340001],[105.88449301,21.2042599210001],[105.883020319,21.203474581],[105.880568752,21.2026525840001],[105.877852533,21.2022075890001],[105.875894018,21.2020090550001],[105.875094299,21.2021801610001],[105.874695662,21.202474399],[105.874254018,21.2030193090001],[105.873026379,21.2060726450001],[105.872804854,21.206561193],[105.872449735,21.206961313],[105.871963894,21.2069546700001],[105.87178497,21.206788633],[105.871487743,21.2065419570001],[105.871161967,21.2056706970001],[105.871139237,21.204458141],[105.871365255,21.20349337],[105.872151364,21.201806113],[105.872824797,21.2004505740001],[105.872816915,21.199109016],[105.872543913,21.198271934],[105.871555058,21.1972708440001],[105.870917753,21.196934922],[105.869924896,21.1968710570001],[105.868932636,21.1969106490001],[105.868235054,21.197052205],[105.867758407,21.1972616030001],[105.867319729,21.1976777530001],[105.867138564,21.198127067],[105.867141181,21.1985754460001],[105.86740614,21.19988476],[105.86737119,21.200195363],[105.867115491,21.2004726050001],[105.866748305,21.200543478],[105.8660499,21.2005470600001],[105.864062727,21.2001778330001],[105.863104399,21.199734339],[105.862586777,21.1992196100001],[105.861845213,21.1981196680001],[105.860842149,21.1962967330001],[105.860323349,21.195575053],[105.859658925,21.195095555],[105.854681611,21.1924994410001],[105.849631547,21.1900070240001],[105.847770545,21.1891713310001],[105.846923783,21.188934132],[105.845563031,21.1888029850001],[105.844534062,21.188842616],[105.843470876,21.189330807],[105.841784593,21.19013253],[105.841087199,21.1903084580001],[105.840425393,21.1902772560001],[105.839652147,21.1900396630001],[105.838397769,21.1892180900001],[105.837325817,21.188154157],[105.836272162,21.187072888],[105.835755451,21.186696037],[105.835203156,21.1865263120001],[105.834651821,21.186529035],[105.834101462,21.186704208],[105.832416111,21.187678281],[105.831022099,21.1881680320001],[105.829902295,21.188397733],[105.828560226,21.188318081],[105.825929008,21.187761859],[105.822780757,21.1867596980001],[105.821344052,21.186180327],[105.819389741,21.185051581],[105.818008099,21.184454675],[105.816242335,21.1841872700001],[105.815246556,21.184122336],[105.813926777,21.184198436],[105.813082733,21.1844439450001],[105.812900087,21.1846517750001],[105.812754945,21.184997395],[105.812848845,21.185447546],[105.813353765,21.185883007],[105.814577853,21.1865507840001],[105.815081304,21.1869522220001],[105.815230414,21.18733092],[105.815232495,21.187710318],[105.815124305,21.188090247],[105.813992421,21.1894753820001],[105.812820746,21.1903088180001],[105.8117942,21.190796645],[105.811059635,21.1909036480001],[105.810103958,21.190908232],[105.809001239,21.190788039],[105.807994515,21.190489701],[105.80669899,21.189889581],[105.804538529,21.188653581],[105.802917974,21.1876844600001],[105.801982169,21.1872173300001],[105.801371232,21.1870854910001],[105.801012283,21.187087193],[105.800689408,21.187122404],[105.800044935,21.187428611],[105.799241738,21.1882576620001],[105.79867375,21.189439285],[105.797855039,21.190723136],[105.796926083,21.1915359290001],[105.796389456,21.191875296],[105.795529569,21.192182501],[105.794453232,21.1922886200001],[105.793447792,21.192225971],[105.792440188,21.191759126],[105.790818957,21.1906551540001],[105.790459102,21.1904884190001],[105.790253689,21.19048938],[105.790136047,21.1904899300001],[105.789921568,21.190659351],[105.789672985,21.1911657690001],[105.789497262,21.1918739560001],[105.789239583,21.1940477690001],[105.788957233,21.194958544],[105.7882452,21.196073434],[105.787102211,21.197156647],[105.785957415,21.197903024],[105.785098192,21.198344911],[105.783628702,21.1987896250001],[105.781082626,21.199306673],[105.779038745,21.1997540030001],[105.777534383,21.200400927],[105.776531875,21.200910795],[105.774672543,21.2023340550001],[105.77252809,21.204162802],[105.770901936,21.2055681150001],[105.770189193,21.206581881],[105.769762587,21.2073922380001],[105.769622825,21.208133924],[105.76955417,21.208740548],[105.769524207,21.209885935],[105.769646569,21.212714824],[105.769309791,21.213541612],[105.768988245,21.213846232],[105.768594723,21.2141174980001],[105.767912771,21.214154283],[105.765792325,21.2137260210001],[105.763528974,21.213433115],[105.76209309,21.2134732930001],[105.761591339,21.2136439760001],[105.760624413,21.21411991],[105.759945562,21.2147629610001],[105.759482633,21.215506084],[105.758950989,21.216855836],[105.758742635,21.2182378160001],[105.758755206,21.2206966800001],[105.758652495,21.2216739830001],[105.758225096,21.222349579],[105.757832392,21.2227892350001],[105.757202234,21.223021784],[105.75657714,21.2229855030001],[105.756117688,21.222753061],[105.755155731,21.222014765],[105.754780606,21.2219773580001],[105.754405669,21.2219790340001],[105.753740504,21.2222556],[105.753409215,21.2226479180001],[105.752995191,21.2231578600001],[105.752296686,21.225076088],[105.751597174,21.226798902],[105.751016885,21.22738775],[105.750560799,21.227819703],[105.749355979,21.2284894910001],[105.746819162,21.2293996710001],[105.744822544,21.2300338360001],[105.742972993,21.2309213820001],[105.74147667,21.231631484],[105.740686065,21.231830372],[105.738020651,21.2320374760001],[105.737021529,21.2321981740001],[105.734775619,21.2329896590001],[105.732655265,21.233897816],[105.732652827,21.233899724],[105.732669659,21.2339692460001],[105.732652954,21.23430567],[105.732855166,21.2348046920001],[105.733365628,21.235576882],[105.734200158,21.2360027340001],[105.73508024,21.2356069680001],[105.735954791,21.235524986],[105.736580712,21.2357176690001],[105.737124085,21.23606706],[105.737292292,21.2363789950001],[105.737295013,21.2369261630001],[105.735934848,21.2399024920001],[105.734693045,21.241549435],[105.734112052,21.2420209750001],[105.73361246,21.242101318],[105.732987481,21.2421040360001],[105.731111186,21.2418385940001],[105.728107447,21.241069898],[105.726774167,21.241075648],[105.725942395,21.2413919100001],[105.725320669,21.242059011],[105.725197591,21.242450381],[105.725240781,21.242762875],[105.725534738,21.2432306210001],[105.726705399,21.2440463460001],[105.727395856,21.244649177],[105.728319808,21.2461303800001],[105.728910832,21.2476911960001],[105.728915253,21.2485901110001],[105.72879217,21.2489814840001],[105.728335943,21.2494133800001],[105.727421369,21.249847253],[105.724923806,21.250366104],[105.723882681,21.2504878230001],[105.723425681,21.250763379],[105.723135911,21.251155462],[105.7230971,21.2517418940001],[105.723775439,21.254123109],[105.724347811,21.2561334870001],[105.724480459,21.257696276],[105.724120153,21.2607072970001],[105.723708597,21.261764339],[105.723554998,21.2618191170001],[105.723202085,21.262556234],[105.723011257,21.2640432810001],[105.72328324,21.2656521910001],[105.723351079,21.2660234590001],[105.723432503,21.266569223],[105.724144609,21.2668691120001],[105.72795931,21.268486513],[105.728736536,21.2690882810001],[105.728997301,21.269631765],[105.728871239,21.2702374290001],[105.728228704,21.2707848200001],[105.72552355,21.2717646950001],[105.725202718,21.2721291510001],[105.725010634,21.272432537],[105.725207462,21.2730973340001],[105.726697426,21.2743011590001],[105.728833237,21.2756232],[105.729479071,21.275741426],[105.730896203,21.275251187],[105.732057027,21.2751251240001],[105.732574413,21.275364919],[105.733417418,21.2762084300001],[105.73491379,21.278682912],[105.735435404,21.2797698580001],[105.735505645,21.280919279],[105.734871507,21.283161007],[105.734876617,21.2841896910001],[105.73539765,21.285155617],[105.736568793,21.287086888],[105.737022302,21.2874479770001],[105.737798147,21.2877471470001],[105.738572494,21.287743752],[105.740377484,21.2873727510001],[105.741539001,21.287367639],[105.742056444,21.287607402],[105.742252157,21.2880301280001],[105.742383037,21.288392625],[105.742191879,21.288877562],[105.741678073,21.28936393],[105.740972189,21.2901536910001],[105.740975828,21.290879822],[105.74259668,21.292385488],[105.742984768,21.292565312],[105.743565546,21.292562748],[105.744337175,21.292014728],[105.744917036,21.291830626],[105.745369665,21.292010159],[105.74569476,21.292492823],[105.746867319,21.294666062],[105.746920057,21.2950008650001],[105.748590576,21.295885749],[105.74896047,21.2959610980001],[105.749576508,21.2959968530001],[105.750150902,21.2959172990001],[105.750724905,21.2957607600001],[105.75191278,21.295216496],[105.752733507,21.2951358330001],[105.75339059,21.2951713900001],[105.754177143,21.295219655],[105.754226169,21.295942246],[105.75452511,21.2980139220001],[105.75501147,21.2991383790001],[105.755542671,21.2996317160001],[105.757663109,21.3007488210001],[105.760506364,21.302223156],[105.76149689,21.3027561010001],[105.761455062,21.303168466],[105.76131387,21.304414712],[105.761024588,21.305569345],[105.760733055,21.3062857300001],[105.760368785,21.307210044],[105.760320883,21.3074639930001],[105.760322189,21.30771772],[105.760373296,21.3080865590001],[105.76047479,21.308685828],[105.760576878,21.3094004330001],[105.761026134,21.310643998],[105.761459853,21.3118424310001],[105.761842189,21.3125827160001],[105.762015904,21.312904551],[105.7624669,21.3136122600001],[105.763228938,21.3145766530001],[105.764198943,21.3158304570001],[105.764924921,21.316472392],[105.765651064,21.317146586],[105.766755914,21.317851304],[105.767409849,21.3184911980001],[105.767916165,21.319046665],[105.769300313,21.321185649],[105.770453418,21.3228966090001],[105.771515476,21.32469379],[105.771931418,21.3254641880001],[105.772374848,21.327114035],[105.772424437,21.327843209],[105.772518667,21.3283576470001],[105.772566002,21.3286577710001],[105.772659568,21.3290434950001],[105.772752901,21.3293863220001],[105.773031329,21.3301144430001],[105.773724614,21.331398431],[105.77571322,21.3352937020001],[105.776410844,21.3373928680001],[105.776549515,21.337649663],[105.776733726,21.3378633410001],[105.777101482,21.338161982],[105.777743637,21.3384164460001],[105.779028179,21.3389682810001],[105.779532806,21.33918047],[105.779900334,21.3394362],[105.78036055,21.339906027],[105.780867226,21.3405043550001],[105.78155812,21.341316353],[105.78261658,21.3423840720001],[105.783030353,21.3427253900001],[105.783351445,21.3428526110001],[105.784451361,21.343104914],[105.786177814,21.343433432],[105.786062285,21.344694502],[105.785915583,21.345841121],[105.785767189,21.3466726190001],[105.785315449,21.34793526],[105.784892747,21.348911275],[105.783654245,21.351667299],[105.782959633,21.353246197],[105.782960242,21.353360782],[105.783176325,21.3537608510001],[105.783574582,21.353930887],[105.785289276,21.35449584],[105.786593877,21.3549217460001],[105.786350629,21.355948611],[105.786306854,21.3570677880001],[105.786208857,21.3573479880001],[105.786012373,21.3578151510001],[105.784841548,21.3592619660001],[105.785685547,21.3618263430001],[105.785990991,21.363130379],[105.785950199,21.3648090230001],[105.785915377,21.367606618],[105.786222818,21.3692836390001],[105.786425051,21.3698888000001],[105.787025521,21.370538713],[105.787675247,21.371095155],[105.788025481,21.3714664980001],[105.788175728,21.371652286],[105.788327474,21.3721178160001],[105.788531458,21.373049334],[105.788586452,21.3740281710001],[105.7886892,21.3746337960001],[105.789190697,21.3753774210001],[105.790258397,21.3768746690001],[105.79172952,21.378526505],[105.794819544,21.380675522],[105.795282864,21.3809618110001],[105.795745406,21.381103856],[105.79790341,21.3816705680001],[105.798366739,21.3819568480001],[105.798753106,21.382243494],[105.799176928,21.383414316],[105.799606464,21.38388516],[105.800267488,21.385067974],[105.800618145,21.385352572],[105.800968145,21.3855144820001],[105.801622727,21.3855113560001],[105.802798742,21.385096779],[105.8053244,21.3841031790001],[105.809177495,21.382469266],[105.811355325,21.3817226350001],[105.812357172,21.3813906250001],[105.81270582,21.381307147],[105.813098782,21.381346133],[105.813274462,21.3815497620001],[105.813586028,21.3826524250001],[105.813850342,21.3831009940001],[105.814201029,21.383385554],[105.814637862,21.3834652240001],[105.815030604,21.3834633160001],[105.815597444,21.383378771],[105.816032681,21.3831721830001],[105.817726378,21.3816917030001],[105.82007322,21.379962644],[105.821856624,21.378931535],[105.824074534,21.377571114],[105.825140984,21.377095577],[105.826404811,21.376803087],[105.827581371,21.376511028],[105.828800871,21.3760960490001],[105.830540751,21.375105965],[105.833168763,21.3733025270001],[105.834067349,21.373495957],[105.835501415,21.3739360170001],[105.835980488,21.374269031],[105.836280633,21.374602936],[105.836762896,21.3754949190001],[105.83700466,21.3760527000001],[105.83718519,21.3763312930001],[105.837425377,21.3766095980001],[105.838024403,21.3770538000001],[105.839039381,21.377216419],[105.840849339,21.377196337],[105.843050725,21.376978878],[105.844886985,21.377107257],[105.846870591,21.37743964],[105.847397325,21.376375818],[105.848605283,21.3748694440001],[105.849243525,21.3745061430001],[105.850332055,21.374500631],[105.851807203,21.3749132290001],[105.854888729,21.3762778120001],[105.855721837,21.3763935800001],[105.856490222,21.37638966],[105.856938101,21.3763273660001],[105.857894385,21.3756023550001],[105.858846809,21.374217231],[105.859286615,21.3727747200001],[105.859466097,21.3706134070001],[105.859511918,21.367492613],[105.859121798,21.36647442],[105.858799913,21.366176012],[105.858286287,21.3659386000001],[105.857837751,21.365880885],[105.857517957,21.3659425270001],[105.857070818,21.366124842],[105.856371402,21.3669685610001],[105.854783585,21.369197059],[105.854241947,21.369649909],[105.853602009,21.369713172],[105.853216443,21.3694750930001],[105.853085607,21.3689956710001],[105.853202884,21.3671347330001],[105.853384886,21.36539349],[105.853185157,21.364074267],[105.852335793,21.361138038],[105.851551533,21.358381514],[105.851354259,21.357482346],[105.851350792,21.3568822510001],[105.851665021,21.3558604740001],[105.852300735,21.3550771050001],[105.85344724,21.3540510980001],[105.854051103,21.353297888],[105.854046583,21.3525177670001],[105.853980134,21.3520980330001],[105.853721959,21.351739282],[105.85275643,21.350844018],[105.852431123,21.3499455],[105.852428694,21.349525441],[105.852554302,21.3491047220001],[105.853254354,21.348381031],[105.853956147,21.3479573930001],[105.856151501,21.347296912],[105.858176481,21.3466698620001],[105.85872294,21.3463587110001],[105.859212777,21.345739488],[105.859209184,21.3451227890001],[105.859152565,21.34481471],[105.858712166,21.3445086030001],[105.858163919,21.3445114040001],[105.857015282,21.344979811],[105.856467322,21.3450339940001],[105.856193193,21.3450353910001],[105.855807929,21.3447803930001],[105.855585649,21.344267593],[105.855581773,21.343599496],[105.85606535,21.3419010530001],[105.856716372,21.3407156870001],[105.857584881,21.3392208490001],[105.858620841,21.3382390830001],[105.859058218,21.338031275],[105.860099254,21.3379231640001],[105.861799949,21.338120023],[105.862457519,21.338065252],[105.863004548,21.337856871],[105.86371152,21.3368767640001],[105.865230559,21.3341451000001],[105.865498336,21.3330644690001],[105.865651944,21.3312135150001],[105.865891547,21.3300045300001],[105.866433402,21.328922477],[105.867031282,21.3280457060001],[105.867631874,21.3276314610001],[105.868015299,21.3275780930001],[105.868508666,21.3275755450001],[105.86883788,21.327625233],[105.86933276,21.3278796450001],[105.870271954,21.3291082210001],[105.870602081,21.329312084],[105.870931299,21.329361776],[105.871971949,21.329202197],[105.874706814,21.328160127],[105.876238997,21.327689605],[105.877334138,21.3274783210001],[105.87969164,21.327517399],[105.882268105,21.327503897],[105.883418367,21.327343673],[105.884458986,21.327184018],[105.886865429,21.326246267],[105.88839723,21.3257242490001],[105.889300946,21.3255909910001],[105.890214151,21.3255286350001],[105.891274375,21.325580541],[105.892317467,21.325831968],[105.89293965,21.326121754],[105.893431085,21.32641618],[105.894191117,21.327071931]]]]}},{"type":"Feature","properties":{"id":"019","name":"Quận Nam Từ Liêm"},"geometry":{"type":"MultiPolygon","coordinates":[[[[105.735146305,20.997018602],[105.735162221,20.9970328900001],[105.734923949,20.9977636140001],[105.734190274,20.9989175310001],[105.734062268,20.9993261280001],[105.734064529,20.999788563],[105.734203595,21.0003841290001],[105.734519221,21.001201151],[105.734564353,21.0015681990001],[105.733712382,21.002974722],[105.733310597,21.0038559330001],[105.733313773,21.00450597],[105.733478073,21.004887647],[105.734253945,21.0057637900001],[105.734439402,21.0063174220001],[105.734728905,21.0073868440001],[105.734690538,21.007845876],[105.734407958,21.008191235],[105.73367848,21.0085002930001],[105.733112181,21.0089615910001],[105.732749498,21.00953673],[105.732475302,21.01160278],[105.732478849,21.0123292980001],[105.732931735,21.0135892110001],[105.734200412,21.015572127],[105.73416149,21.015916443],[105.733878137,21.0161088570001],[105.733025848,21.016227251],[105.731848848,21.0163852640001],[105.731038104,21.016694661],[105.73059379,21.017193664],[105.730555596,21.0176909320001],[105.730801881,21.0182252050001],[105.731782179,21.0193681440001],[105.73255868,21.0203589990001],[105.733745252,21.022151077],[105.733867843,21.022303494],[105.734314968,21.0223780470001],[105.734801015,21.0221082730001],[105.735246265,21.021800448],[105.735449331,21.02179957],[105.736669052,21.0220619560001],[105.737808107,21.0224394030001],[105.738255987,21.0226668880001],[105.738460749,21.023010146],[105.738464516,21.0237748970001],[105.738349085,21.0250754960001],[105.737610415,21.0276597770001],[105.737132817,21.029650238],[105.737013226,21.030109613],[105.738121526,21.032475579],[105.738412129,21.033999549],[105.737583351,21.037208951],[105.736034085,21.037493812],[105.735304085,21.0377263990001],[105.73502089,21.037957052],[105.734739194,21.0384936090001],[105.733979628,21.040982372],[105.733499127,21.0423992610001],[105.732371521,21.0443925120001],[105.730958978,21.046272264],[105.730270679,21.0467340800001],[105.728646241,21.046817526],[105.72816028,21.0471255200001],[105.727636313,21.047969004],[105.727234557,21.048888436],[105.726960239,21.0509544810001],[105.72712922,21.05229209],[105.727252572,21.0525974720001],[105.727579963,21.053093163],[105.728929058,21.05484634],[105.72967785,21.0559480250001],[105.733115164,21.0537092590001],[105.735410718,21.045232598],[105.737605242,21.045512923],[105.743596415,21.043184034],[105.753278555,21.038047373],[105.753797268,21.038045073],[105.754837164,21.038528921],[105.755801557,21.0387339870001],[105.756838987,21.038729371],[105.758692094,21.0380854490001],[105.759025613,21.038859664],[105.760072228,21.0399749370001],[105.762140178,21.0417767070001],[105.76869952,21.039685552],[105.768365039,21.036452103],[105.771193601,21.0358408050001],[105.771882126,21.0353719510001],[105.772918163,21.034038912],[105.773771638,21.032995467],[105.775484827,21.0321213550001],[105.779102983,21.0318737970001],[105.781370332,21.031401368],[105.783717004,21.0293985340001],[105.784155632,21.0244003760001],[105.784027205,21.0233036540001],[105.782968722,21.0203053380001],[105.789880944,21.013643792],[105.788453118,21.012139576],[105.790150557,21.009587734],[105.790146299,21.0087791990001],[105.78928001,21.007339384],[105.789583041,21.006644936],[105.791096921,21.00294168],[105.792565657,21.00095602],[105.791069196,20.9997675720001],[105.792189005,20.998827572],[105.794137291,20.9981641410001],[105.79565668,20.9977208080001],[105.794423481,20.9959816200001],[105.794779049,20.995543938],[105.795195205,20.995247615],[105.795816057,20.994165298],[105.795807737,20.9925952900001],[105.795186076,20.9912396570001],[105.796546533,20.9902792250001],[105.798419367,20.988442584],[105.797227083,20.987553157],[105.794442119,20.9856147080001],[105.793850269,20.98520274],[105.793012852,20.9845609590001],[105.792464787,20.9852695910001],[105.79123935,20.985148598],[105.786892357,20.985178955],[105.786332998,20.9851713190001],[105.785953591,20.9853795490001],[105.785849347,20.9854775360001],[105.785742263,20.9856210460001],[105.785689183,20.9857822600001],[105.785798871,20.9861364080001],[105.785916239,20.9862960310001],[105.786231053,20.986588958],[105.787636813,20.987039881],[105.78826169,20.9874295820001],[105.788339854,20.9874419510001],[105.788681444,20.9878201490001],[105.78868299,20.9881145310001],[105.788270444,20.9890977210001],[105.787702681,20.9893194850001],[105.786913946,20.9893002540001],[105.785061825,20.989301809],[105.784113837,20.98886185],[105.782407005,20.987981055],[105.780509681,20.986834518],[105.778611004,20.9854213670001],[105.777095221,20.9848951020001],[105.770126934,20.984409392],[105.767820644,20.9835153270001],[105.76535203,20.981571402],[105.764591013,20.9806861710001],[105.763453558,20.980158083],[105.76298075,20.980160202],[105.761849171,20.980787315],[105.760812136,20.9814140080001],[105.760058788,20.9820394290001],[105.758844725,20.985066256],[105.75649761,20.988453571],[105.755375204,20.989531707],[105.752611797,20.991188902],[105.749410008,20.992710903],[105.745621226,20.9935500120001],[105.739503031,20.995358728],[105.735146305,20.997018602]]]]}},{"type":"Feature","properties":{"id":"021","name":"Quận Bắc Từ Liêm"},"geometry":{"type":"MultiPolygon","coordinates":[[[[105.72967785,21.0559480250001],[105.729706478,21.0559901410001],[105.729749332,21.056448813],[105.729628365,21.0570294570001],[105.729251258,21.058662117],[105.728553547,21.060356551],[105.726896363,21.062719594],[105.724347571,21.065734342],[105.721542485,21.068950343],[105.720779709,21.069445209],[105.720488231,21.069583933],[105.719956186,21.0697317630001],[105.719029355,21.069978319],[105.718308695,21.070215902],[105.717605185,21.070445324],[105.71724508,21.0706086010001],[105.717090956,21.070722479],[105.716997051,21.0708522670001],[105.716920454,21.07100626],[105.71685284,21.0712410780001],[105.716845833,21.071572695],[105.71686383,21.071742452],[105.716933807,21.072034893],[105.717595163,21.073693054],[105.717933005,21.074419338],[105.718229919,21.074724471],[105.718655237,21.074909083],[105.719079788,21.0749339110001],[105.719362224,21.0748261910001],[105.71969997,21.0744519360001],[105.720262017,21.0736506430001],[105.720656596,21.0733293970001],[105.720996133,21.0733279560001],[105.721478812,21.073672102],[105.722132543,21.0742818190001],[105.722700883,21.0747853830001],[105.723015341,21.075449802],[105.72327322,21.076114471],[105.723501769,21.076566208],[105.723757579,21.07680479],[105.724070121,21.077069766],[105.724637188,21.077307019],[105.725119491,21.077571259],[105.726056348,21.078206385],[105.726401392,21.078514071],[105.727276989,21.080247872],[105.727588275,21.0809836810001],[105.727702479,21.081457071],[105.727677965,21.0821679920001],[105.727625091,21.0828000490001],[105.727403609,21.083274879],[105.726541555,21.0843316260001],[105.726278296,21.0848461250001],[105.726224649,21.0853202340001],[105.726238082,21.088084452],[105.726366238,21.0914273700001],[105.726427813,21.092585463],[105.726569873,21.0930324060001],[105.726907623,21.0934521820001],[105.727272968,21.093792864],[105.727329947,21.094003226],[105.727331971,21.0942626500001],[105.727073652,21.094754433],[105.726490648,21.0954929260001],[105.725582986,21.09684793],[105.725505225,21.097415212],[105.725546405,21.097604022],[105.725709987,21.0981324690001],[105.725913097,21.0985095620001],[105.726438436,21.098923079],[105.727703968,21.099398751],[105.731949924,21.1014455340001],[105.737260279,21.1045583590001],[105.741091655,21.1076021220001],[105.742018348,21.1068107670001],[105.74616705,21.1022668140001],[105.748288081,21.100081629],[105.749026128,21.099382097],[105.749765906,21.0990307000001],[105.750321186,21.098854176],[105.751339905,21.0986755970001],[105.764587981,21.097310884],[105.769962633,21.097025467],[105.779047085,21.097158048],[105.790543758,21.097714083],[105.794994696,21.098041402],[105.796014285,21.0980366200001],[105.796096679,21.098025987],[105.793427934,21.0928882150001],[105.793107642,21.0887710330001],[105.79343192,21.0842637050001],[105.793764024,21.081230969],[105.794192729,21.0800001010001],[105.794626227,21.079670374],[105.795322596,21.079667112],[105.796196992,21.0804003270001],[105.796893364,21.0803970590001],[105.79845627,21.0796523980001],[105.799584371,21.0789917000001],[105.80027679,21.0782511210001],[105.799831485,21.0763689630001],[105.802436225,21.0751278170001],[105.803041125,21.0743057120001],[105.803297414,21.0734033360001],[105.803197618,21.0710280220001],[105.806833909,21.0674061240001],[105.804902513,21.0657847530001],[105.796573023,21.0582681490001],[105.7997856,21.0553794160001],[105.794909104,21.050823258],[105.793021353,21.049528611],[105.793890386,21.048192235],[105.79375398,21.046126046],[105.790547299,21.046056164],[105.786292336,21.046188654],[105.786129042,21.044218088],[105.781203189,21.044244652],[105.77978647,21.0494272010001],[105.775034058,21.048487412],[105.768803747,21.042961565],[105.768669682,21.0426388160001],[105.768811962,21.040772491],[105.76869952,21.039685552],[105.762140178,21.0417767070001],[105.760072228,21.0399749370001],[105.759025613,21.038859664],[105.758692094,21.0380854490001],[105.756838987,21.038729371],[105.755801557,21.0387339870001],[105.754837164,21.038528921],[105.753797268,21.038045073],[105.753278555,21.038047373],[105.743596415,21.043184034],[105.737605242,21.045512923],[105.735410718,21.045232598],[105.733115164,21.0537092590001],[105.72967785,21.0559480250001]]]]}}]}